<?xml version="1.0" encoding="UTF-8"?>
<kml xmlns="http://www.opengis.net/kml/2.2">
  <Document>
    <name>Untitled map</name>
    <description/>
    <Style id="icon-1899-0288D1-nodesc-normal">
      <IconStyle>
        <color>ffd18802</color>
        <scale>1</scale>
        <Icon>
          <href>https://www.gstatic.com/mapspro/images/stock/503-wht-blank_maps.png</href>
        </Icon>
        <hotSpot x="32" xunits="pixels" y="64" yunits="insetPixels"/>
      </IconStyle>
      <LabelStyle>
        <scale>0</scale>
      </LabelStyle>
      <BalloonStyle>
        <text><![CDATA[<h3>$[name]</h3>]]></text>
      </BalloonStyle>
    </Style>
    <Style id="icon-1899-0288D1-nodesc-highlight">
      <IconStyle>
        <color>ffd18802</color>
        <scale>1</scale>
        <Icon>
          <href>https://www.gstatic.com/mapspro/images/stock/503-wht-blank_maps.png</href>
        </Icon>
        <hotSpot x="32" xunits="pixels" y="64" yunits="insetPixels"/>
      </IconStyle>
      <LabelStyle>
        <scale>1</scale>
      </LabelStyle>
      <BalloonStyle>
        <text><![CDATA[<h3>$[name]</h3>]]></text>
      </BalloonStyle>
    </Style>
    <StyleMap id="icon-1899-0288D1-nodesc">
      <Pair>
        <key>normal</key>
        <styleUrl>#icon-1899-0288D1-nodesc-normal</styleUrl>
      </Pair>
      <Pair>
        <key>highlight</key>
        <styleUrl>#icon-1899-0288D1-nodesc-highlight</styleUrl>
      </Pair>
    </StyleMap>
    <Style id="icon-1899-DB4436-nodesc-normal">
      <IconStyle>
        <color>ff3644db</color>
        <scale>1</scale>
        <Icon>
          <href>https://www.gstatic.com/mapspro/images/stock/503-wht-blank_maps.png</href>
        </Icon>
        <hotSpot x="32" xunits="pixels" y="64" yunits="insetPixels"/>
      </IconStyle>
      <LabelStyle>
        <scale>0</scale>
      </LabelStyle>
      <BalloonStyle>
        <text><![CDATA[<h3>$[name]</h3>]]></text>
      </BalloonStyle>
    </Style>
    <Style id="icon-1899-DB4436-nodesc-highlight">
      <IconStyle>
        <color>ff3644db</color>
        <scale>1</scale>
        <Icon>
          <href>https://www.gstatic.com/mapspro/images/stock/503-wht-blank_maps.png</href>
        </Icon>
        <hotSpot x="32" xunits="pixels" y="64" yunits="insetPixels"/>
      </IconStyle>
      <LabelStyle>
        <scale>1</scale>
      </LabelStyle>
      <BalloonStyle>
        <text><![CDATA[<h3>$[name]</h3>]]></text>
      </BalloonStyle>
    </Style>
    <StyleMap id="icon-1899-DB4436-nodesc">
      <Pair>
        <key>normal</key>
        <styleUrl>#icon-1899-DB4436-nodesc-normal</styleUrl>
      </Pair>
      <Pair>
        <key>highlight</key>
        <styleUrl>#icon-1899-DB4436-nodesc-highlight</styleUrl>
      </Pair>
    </StyleMap>
    <Style id="line-1267FF-5000-nodesc-normal">
      <LineStyle>
        <color>ffff6712</color>
        <width>5</width>
      </LineStyle>
      <BalloonStyle>
        <text><![CDATA[<h3>$[name]</h3>]]></text>
      </BalloonStyle>
    </Style>
    <Style id="line-1267FF-5000-nodesc-highlight">
      <LineStyle>
        <color>ffff6712</color>
        <width>7.5</width>
      </LineStyle>
      <BalloonStyle>
        <text><![CDATA[<h3>$[name]</h3>]]></text>
      </BalloonStyle>
    </Style>
    <StyleMap id="line-1267FF-5000-nodesc">
      <Pair>
        <key>normal</key>
        <styleUrl>#line-1267FF-5000-nodesc-normal</styleUrl>
      </Pair>
      <Pair>
        <key>highlight</key>
        <styleUrl>#line-1267FF-5000-nodesc-highlight</styleUrl>
      </Pair>
    </StyleMap>
    <Folder>
      <name>Bus stops</name>
      <Placemark>
        <name>Miriswatta junction</name>
        <styleUrl>#icon-1899-0288D1-nodesc</styleUrl>
        <Point>
          <coordinates>
            80.015799,7.0727342,0
          </coordinates>
        </Point>
      </Placemark>
      <Placemark>
        <name>Belummahara</name>
        <styleUrl>#icon-1899-0288D1-nodesc</styleUrl>
        <Point>
          <coordinates>
            80.005979,7.0579318,0
          </coordinates>
        </Point>
      </Placemark>
      <Placemark>
        <name>Weliweriya</name>
        <styleUrl>#icon-1899-0288D1-nodesc</styleUrl>
        <Point>
          <coordinates>
            80.027151,7.0335922,0
          </coordinates>
        </Point>
      </Placemark>
      <Placemark>
        <name>Henegama Junction</name>
        <styleUrl>#icon-1899-0288D1-nodesc</styleUrl>
        <Point>
          <coordinates>
            80.0543973,7.0219718,0
          </coordinates>
        </Point>
      </Placemark>
      <Placemark>
        <name>Horagasdeka Junction</name>
        <styleUrl>#icon-1899-0288D1-nodesc</styleUrl>
        <Point>
          <coordinates>
            80.0784874,7.0245293,0
          </coordinates>
        </Point>
      </Placemark>
      <Placemark>
        <name>Radawana</name>
        <styleUrl>#icon-1899-0288D1-nodesc</styleUrl>
        <Point>
          <coordinates>
            80.0942982,7.0332273,0
          </coordinates>
        </Point>
      </Placemark>
      <Placemark>
        <name>Diyawala bus stop</name>
        <styleUrl>#icon-1899-0288D1-nodesc</styleUrl>
        <Point>
          <coordinates>
            80.1102641,7.0360859,0
          </coordinates>
        </Point>
      </Placemark>
      <Placemark>
        <name>bus stand 2</name>
        <styleUrl>#icon-1899-0288D1-nodesc</styleUrl>
        <Point>
          <coordinates>
            80.1231453,7.0411131,0
          </coordinates>
        </Point>
      </Placemark>
      <Placemark>
        <name>Point 9</name>
        <styleUrl>#icon-1899-0288D1-nodesc</styleUrl>
        <Point>
          <coordinates>
            80.1280806,7.0418158,0
          </coordinates>
        </Point>
      </Placemark>
    </Folder>
    <Folder>
      <name>Directions from Gampaha Bus Stand, A33, Gampaha, Sri Lanka to Kirindiwela Bus Stand</name>
      <Placemark>
        <name>Directions from Gampaha Bus Stand, A33, Gampaha, Sri Lanka to Kirindiwela Bus Stand</name>
        <styleUrl>#line-1267FF-5000-nodesc</styleUrl>
        <LineString>
          <tessellate>1</tessellate>
          <coordinates>
            79.99174,7.09231,0
            79.99159,7.09231,0
            79.9916,7.09216,0
            79.99158,7.09211,0
            79.99158,7.09209,0
            79.99116,7.09146,0
            79.99167,7.09116,0
            79.99178,7.09115,0
            79.99179,7.09114,0
            79.99184,7.09113,0
            79.99186,7.09112,0
            79.99191,7.09108,0
            79.99198,7.09104,0
            79.99204,7.09102,0
            79.99217,7.09096,0
            79.99226,7.09104,0
            79.99243,7.09125,0
            79.99312,7.09223,0
            79.99359,7.09205,0
            79.99423,7.09184,0
            79.99471,7.09164,0
            79.99471,7.09165,0
            79.99472,7.09165,0
            79.99472,7.09167,0
            79.99473,7.09167,0
            79.99473,7.09168,0
            79.99475,7.0917,0
            79.99476,7.0917,0
            79.99477,7.09171,0
            79.99484,7.09171,0
            79.99484,7.0917,0
            79.99485,7.0917,0
            79.99487,7.09168,0
            79.99487,7.09167,0
            79.99488,7.09167,0
            79.99488,7.09165,0
            79.99489,7.09165,0
            79.99489,7.09161,0
            79.99491,7.09159,0
            79.99493,7.09158,0
            79.99578,7.0913,0
            79.99598,7.09126,0
            79.99655,7.0912,0
            79.99807,7.09114,0
            79.99842,7.0911,0
            79.99914,7.09107,0
            79.9992,7.09108,0
            79.99931,7.09112,0
            79.99931,7.09115,0
            79.99932,7.09116,0
            79.99932,7.09117,0
            79.99933,7.09118,0
            79.99933,7.09119,0
            79.99934,7.0912,0
            79.99934,7.09121,0
            79.99935,7.09121,0
            79.99937,7.09123,0
            79.99938,7.09123,0
            79.99939,7.09124,0
            79.99941,7.09124,0
            79.99942,7.09125,0
            79.99946,7.09125,0
            79.99947,7.09124,0
            79.99949,7.09124,0
            79.9995,7.09123,0
            79.99951,7.09123,0
            79.99953,7.09121,0
            79.99954,7.09121,0
            79.99954,7.0912,0
            79.99955,7.09119,0
            79.99955,7.09118,0
            79.99956,7.09117,0
            79.99956,7.09116,0
            79.99957,7.09115,0
            79.99957,7.0911,0
            79.9997,7.09102,0
            79.99981,7.09097,0
            80.0005,7.0908,0
            80.00138,7.09054,0
            80.00153,7.09054,0
            80.00291,7.09011,0
            80.00329,7.08997,0
            80.00343,7.08993,0
            80.00397,7.0897,0
            80.00432,7.08952,0
            80.00481,7.08924,0
            80.00524,7.08896,0
            80.00539,7.08884,0
            80.00632,7.08819,0
            80.00635,7.08816,0
            80.00639,7.08813,0
            80.00654,7.08796,0
            80.00801,7.08613,0
            80.00827,7.08577,0
            80.00871,7.08504,0
            80.00879,7.08493,0
            80.00892,7.0848,0
            80.00896,7.08475,0
            80.00918,7.08456,0
            80.00951,7.08431,0
            80.0097,7.08415,0
            80.0098,7.08405,0
            80.00993,7.0839,0
            80.01002,7.08378,0
            80.0104,7.0832,0
            80.01093,7.08226,0
            80.01095,7.0822,0
            80.01129,7.08162,0
            80.01211,7.07986,0
            80.01226,7.07949,0
            80.01272,7.07858,0
            80.01273,7.07857,0
            80.01384,7.0764,0
            80.01388,7.07624,0
            80.01413,7.07581,0
            80.01419,7.07569,0
            80.01424,7.07562,0
            80.01426,7.07557,0
            80.01434,7.07544,0
            80.01439,7.07534,0
            80.01448,7.07519,0
            80.01449,7.07518,0
            80.01454,7.0751,0
            80.01459,7.075,0
            80.0147,7.07484,0
            80.01478,7.07474,0
            80.01481,7.07469,0
            80.01538,7.07412,0
            80.01544,7.0741,0
            80.01549,7.07406,0
            80.01565,7.07389,0
            80.01566,7.07387,0
            80.01626,7.07323,0
            80.01589,7.07288,0
            80.01542,7.07253,0
            80.01541,7.07253,0
            80.01479,7.072,0
            80.01466,7.07185,0
            80.01455,7.07169,0
            80.01445,7.07152,0
            80.01394,7.07035,0
            80.0139,7.07028,0
            80.01352,7.06944,0
            80.01273,7.06756,0
            80.01239,7.06682,0
            80.01238,7.06665,0
            80.01239,7.06663,0
            80.01239,7.0666,0
            80.01244,7.06652,0
            80.01256,7.06645,0
            80.0126,7.06641,0
            80.01309,7.06615,0
            80.01318,7.06609,0
            80.01322,7.06603,0
            80.01324,7.06602,0
            80.01328,7.06593,0
            80.01334,7.06568,0
            80.01337,7.06545,0
            80.01356,7.06457,0
            80.01368,7.06387,0
            80.01372,7.0637,0
            80.01378,7.06351,0
            80.01397,7.06301,0
            80.01415,7.06235,0
            80.01449,7.06064,0
            80.01462,7.06017,0
            80.01487,7.05941,0
            80.015,7.05916,0
            80.01526,7.05848,0
            80.01537,7.05812,0
            80.01538,7.05807,0
            80.0154,7.05804,0
            80.01564,7.05726,0
            80.01593,7.05619,0
            80.016,7.05571,0
            80.01608,7.0554,0
            80.01615,7.0552,0
            80.01639,7.05433,0
            80.01649,7.05389,0
            80.01649,7.05386,0
            80.01653,7.05369,0
            80.01658,7.05335,0
            80.01665,7.05319,0
            80.01679,7.05222,0
            80.01679,7.05218,0
            80.01681,7.05201,0
            80.01681,7.05175,0
            80.01677,7.05153,0
            80.01674,7.05143,0
            80.01661,7.05115,0
            80.01658,7.05112,0
            80.01653,7.05104,0
            80.01594,7.05039,0
            80.0159,7.05031,0
            80.01587,7.05019,0
            80.01586,7.04988,0
            80.01587,7.04982,0
            80.01586,7.04804,0
            80.01587,7.04796,0
            80.01587,7.04791,0
            80.01589,7.04779,0
            80.01617,7.04698,0
            80.01628,7.04675,0
            80.01628,7.04674,0
            80.01643,7.04641,0
            80.01652,7.04624,0
            80.01698,7.04548,0
            80.017,7.04543,0
            80.01717,7.04515,0
            80.01741,7.04469,0
            80.01744,7.04461,0
            80.01789,7.04372,0
            80.01808,7.04341,0
            80.0181,7.04339,0
            80.01893,7.04207,0
            80.01934,7.04153,0
            80.01936,7.04149,0
            80.01944,7.04138,0
            80.01987,7.04088,0
            80.02026,7.04054,0
            80.02081,7.04012,0
            80.02156,7.03968,0
            80.02227,7.03934,0
            80.0223,7.03931,0
            80.02233,7.03929,0
            80.02239,7.03922,0
            80.02282,7.0386,0
            80.02306,7.03836,0
            80.02348,7.03778,0
            80.02365,7.0376,0
            80.02387,7.03744,0
            80.02477,7.03689,0
            80.02509,7.03662,0
            80.02543,7.03626,0
            80.02564,7.03601,0
            80.02577,7.03583,0
            80.02585,7.03565,0
            80.02587,7.03562,0
            80.02616,7.03496,0
            80.02633,7.03464,0
            80.02663,7.0342,0
            80.02686,7.03391,0
            80.02698,7.03378,0
            80.02801,7.03254,0
            80.02815,7.03233,0
            80.0282,7.03223,0
            80.02824,7.03217,0
            80.02847,7.03168,0
            80.02868,7.03116,0
            80.0288,7.0308,0
            80.02885,7.0308,0
            80.02887,7.03079,0
            80.02897,7.03076,0
            80.02993,7.03016,0
            80.03056,7.0298,0
            80.03096,7.02954,0
            80.03178,7.02893,0
            80.03195,7.02884,0
            80.03198,7.02883,0
            80.032,7.02883,0
            80.03232,7.02877,0
            80.03249,7.0287,0
            80.03252,7.02868,0
            80.03273,7.02845,0
            80.03309,7.02801,0
            80.03343,7.02766,0
            80.03389,7.02723,0
            80.03412,7.02699,0
            80.03427,7.0269,0
            80.03446,7.02682,0
            80.03513,7.02659,0
            80.03719,7.026,0
            80.03721,7.026,0
            80.03736,7.02595,0
            80.03737,7.02595,0
            80.0383,7.02568,0
            80.03917,7.02548,0
            80.03944,7.02539,0
            80.03958,7.02532,0
            80.03959,7.02532,0
            80.03987,7.02517,0
            80.04028,7.02501,0
            80.04063,7.0249,0
            80.04122,7.02476,0
            80.04222,7.0246,0
            80.04261,7.02456,0
            80.0428,7.02456,0
            80.04291,7.02458,0
            80.04306,7.02462,0
            80.04433,7.0251,0
            80.04484,7.02524,0
            80.04485,7.02525,0
            80.0452,7.02535,0
            80.04528,7.02535,0
            80.04538,7.02534,0
            80.04545,7.02532,0
            80.04567,7.02519,0
            80.04641,7.02467,0
            80.0469,7.02435,0
            80.04775,7.02372,0
            80.0484,7.02316,0
            80.04853,7.02307,0
            80.04935,7.02268,0
            80.04957,7.02256,0
            80.05004,7.02236,0
            80.05062,7.02221,0
            80.05105,7.02214,0
            80.05146,7.02211,0
            80.05188,7.0221,0
            80.05282,7.02204,0
            80.05322,7.02206,0
            80.05347,7.02209,0
            80.05376,7.0221,0
            80.05391,7.02208,0
            80.05395,7.02208,0
            80.05445,7.02202,0
            80.05519,7.02203,0
            80.05529,7.02204,0
            80.05545,7.02204,0
            80.05575,7.02207,0
            80.05606,7.02217,0
            80.05629,7.02228,0
            80.05769,7.0231,0
            80.05785,7.02317,0
            80.05786,7.02318,0
            80.05914,7.02385,0
            80.05915,7.02385,0
            80.0592,7.02388,0
            80.0598,7.02415,0
            80.05981,7.02416,0
            80.06061,7.02457,0
            80.0608,7.02468,0
            80.06104,7.0248,0
            80.06131,7.02491,0
            80.06133,7.02491,0
            80.06174,7.02509,0
            80.06311,7.02558,0
            80.06325,7.02565,0
            80.06331,7.0257,0
            80.06358,7.02586,0
            80.06368,7.02591,0
            80.06424,7.02614,0
            80.06434,7.02619,0
            80.06455,7.02623,0
            80.06464,7.02622,0
            80.0648,7.02622,0
            80.06482,7.02621,0
            80.0651,7.0262,0
            80.06565,7.02628,0
            80.06572,7.0263,0
            80.06594,7.02634,0
            80.06734,7.0267,0
            80.06755,7.02673,0
            80.06782,7.02673,0
            80.06798,7.02669,0
            80.06827,7.02659,0
            80.06872,7.02639,0
            80.06879,7.02637,0
            80.06974,7.02599,0
            80.07005,7.02585,0
            80.07197,7.02484,0
            80.07205,7.02479,0
            80.07215,7.02475,0
            80.07236,7.02462,0
            80.07255,7.02443,0
            80.07285,7.02405,0
            80.07314,7.02362,0
            80.07324,7.02345,0
            80.07333,7.02336,0
            80.07347,7.02324,0
            80.07357,7.02319,0
            80.07363,7.02317,0
            80.07372,7.02316,0
            80.07428,7.02317,0
            80.07455,7.02316,0
            80.07554,7.02317,0
            80.07647,7.02303,0
            80.07663,7.02303,0
            80.07668,7.02304,0
            80.07672,7.02304,0
            80.07675,7.02306,0
            80.07688,7.02312,0
            80.07696,7.0232,0
            80.07703,7.02325,0
            80.07752,7.02369,0
            80.07752,7.0237,0
            80.0785,7.02463,0
            80.07883,7.02498,0
            80.07897,7.02518,0
            80.0794,7.02568,0
            80.07947,7.02575,0
            80.07971,7.02606,0
            80.07992,7.02657,0
            80.08,7.02684,0
            80.08001,7.02686,0
            80.08023,7.02752,0
            80.08032,7.02787,0
            80.08037,7.02802,0
            80.08044,7.02819,0
            80.08045,7.02823,0
            80.08054,7.02835,0
            80.08174,7.02954,0
            80.0818,7.02961,0
            80.08207,7.02982,0
            80.08215,7.02987,0
            80.08234,7.02995,0
            80.08261,7.03004,0
            80.08263,7.03005,0
            80.08325,7.03025,0
            80.08386,7.03039,0
            80.08391,7.03041,0
            80.08398,7.03045,0
            80.08405,7.0305,0
            80.08427,7.0307,0
            80.08462,7.03106,0
            80.08474,7.03114,0
            80.08497,7.03125,0
            80.08528,7.03134,0
            80.08532,7.03136,0
            80.08565,7.03144,0
            80.08567,7.03145,0
            80.08603,7.03155,0
            80.0862,7.03157,0
            80.08633,7.0316,0
            80.08638,7.0316,0
            80.08645,7.03162,0
            80.08658,7.03163,0
            80.08725,7.03163,0
            80.08738,7.03165,0
            80.08743,7.03165,0
            80.08761,7.03169,0
            80.08812,7.03186,0
            80.08815,7.03186,0
            80.08834,7.03192,0
            80.08835,7.03192,0
            80.08872,7.03203,0
            80.08928,7.03224,0
            80.08933,7.03225,0
            80.08959,7.03235,0
            80.08971,7.03241,0
            80.08975,7.03242,0
            80.09019,7.03265,0
            80.09121,7.03326,0
            80.09168,7.0335,0
            80.09194,7.03359,0
            80.09202,7.0336,0
            80.09207,7.0336,0
            80.09229,7.03357,0
            80.09269,7.03349,0
            80.09286,7.03347,0
            80.0929,7.03347,0
            80.09309,7.03344,0
            80.09362,7.0334,0
            80.09502,7.03345,0
            80.09569,7.03355,0
            80.09601,7.03356,0
            80.09687,7.03363,0
            80.09727,7.03372,0
            80.0976,7.03371,0
            80.09792,7.03365,0
            80.09859,7.03345,0
            80.09883,7.0334,0
            80.09886,7.0334,0
            80.09915,7.03336,0
            80.09963,7.03336,0
            80.1001,7.0334,0
            80.10057,7.03347,0
            80.10082,7.03352,0
            80.10148,7.0337,0
            80.10179,7.03382,0
            80.10226,7.03414,0
            80.10238,7.03421,0
            80.1026,7.0343,0
            80.10365,7.03459,0
            80.10431,7.03466,0
            80.10478,7.03464,0
            80.10509,7.03457,0
            80.1056,7.03438,0
            80.10562,7.03438,0
            80.10641,7.03416,0
            80.10652,7.03414,0
            80.10655,7.03414,0
            80.10658,7.03413,0
            80.10661,7.03413,0
            80.10664,7.03412,0
            80.10681,7.03412,0
            80.10684,7.03413,0
            80.10693,7.03413,0
            80.10696,7.03414,0
            80.10699,7.03414,0
            80.10701,7.03415,0
            80.10704,7.03415,0
            80.10707,7.03416,0
            80.1071,7.03416,0
            80.10713,7.03417,0
            80.10714,7.03417,0
            80.10716,7.03418,0
            80.10719,7.03418,0
            80.10724,7.0342,0
            80.10727,7.0342,0
            80.10736,7.03423,0
            80.10739,7.03423,0
            80.10745,7.03425,0
            80.10747,7.03425,0
            80.10749,7.03426,0
            80.1075,7.03426,0
            80.10759,7.03429,0
            80.10761,7.03431,0
            80.10767,7.03433,0
            80.10769,7.03435,0
            80.10772,7.03436,0
            80.10774,7.03438,0
            80.10777,7.0344,0
            80.10779,7.03442,0
            80.10781,7.03443,0
            80.10782,7.03444,0
            80.10784,7.03445,0
            80.10788,7.03449,0
            80.10791,7.03451,0
            80.10793,7.03453,0
            80.10796,7.03454,0
            80.108,7.03458,0
            80.10803,7.0346,0
            80.10807,7.03464,0
            80.1081,7.03465,0
            80.10814,7.03469,0
            80.10817,7.03471,0
            80.10821,7.03475,0
            80.10824,7.03476,0
            80.10826,7.03478,0
            80.10829,7.0348,0
            80.10833,7.03484,0
            80.10838,7.03487,0
            80.1084,7.03489,0
            80.10843,7.03491,0
            80.10847,7.03495,0
            80.10852,7.03498,0
            80.10854,7.035,0
            80.10857,7.03502,0
            80.10859,7.03504,0
            80.10862,7.03506,0
            80.10868,7.03512,0
            80.10871,7.03513,0
            80.10875,7.03517,0
            80.10878,7.03519,0
            80.10882,7.03523,0
            80.10885,7.03525,0
            80.10889,7.03529,0
            80.10943,7.0357,0
            80.10948,7.03575,0
            80.11019,7.03619,0
            80.11059,7.03633,0
            80.11074,7.03634,0
            80.11125,7.03633,0
            80.11132,7.03634,0
            80.11138,7.03634,0
            80.11144,7.03635,0
            80.11149,7.03637,0
            80.1115,7.03637,0
            80.11159,7.03642,0
            80.1116,7.03643,0
            80.11176,7.03652,0
            80.11274,7.03696,0
            80.11287,7.03704,0
            80.11356,7.03771,0
            80.11493,7.03896,0
            80.11519,7.03923,0
            80.11522,7.03928,0
            80.1159,7.04017,0
            80.11643,7.04082,0
            80.1165,7.04092,0
            80.11679,7.04128,0
            80.11699,7.04145,0
            80.11708,7.0415,0
            80.11731,7.04157,0
            80.11752,7.04161,0
            80.11785,7.04157,0
            80.11818,7.0415,0
            80.11828,7.04149,0
            80.1183,7.04148,0
            80.1187,7.04148,0
            80.11919,7.04156,0
            80.11922,7.04156,0
            80.11937,7.04158,0
            80.11939,7.04159,0
            80.12034,7.04174,0
            80.12047,7.04175,0
            80.12063,7.04179,0
            80.12064,7.0418,0
            80.12088,7.04189,0
            80.12134,7.0422,0
            80.12144,7.04222,0
            80.12153,7.04222,0
            80.12162,7.04221,0
            80.1217,7.04219,0
            80.12182,7.04214,0
            80.12196,7.04203,0
            80.12234,7.04169,0
            80.12346,7.04076,0
            80.12365,7.04063,0
            80.12366,7.04063,0
            80.12369,7.04061,0
            80.12371,7.04061,0
            80.1238,7.04057,0
            80.12382,7.04057,0
            80.1239,7.04055,0
            80.12403,7.04053,0
            80.12424,7.04052,0
            80.12466,7.04054,0
            80.12513,7.04059,0
            80.12606,7.04076,0
            80.12632,7.04083,0
            80.12634,7.04083,0
            80.12648,7.04086,0
            80.12683,7.04106,0
            80.12967,7.04286,0
            80.13061,7.04159,0
            80.13102,7.04177,0
            80.13031,7.0427,0
          </coordinates>
        </LineString>
      </Placemark>
      <Placemark>
        <name>Gampaha Bus Stand, A33, Gampaha, Sri Lanka</name>
        <styleUrl>#icon-1899-DB4436-nodesc</styleUrl>
        <Point>
          <coordinates>
            79.9917364,7.0923058,0
          </coordinates>
        </Point>
      </Placemark>
      <Placemark>
        <name>Kirindiwela Bus Stand</name>
        <styleUrl>#icon-1899-DB4436-nodesc</styleUrl>
        <Point>
          <coordinates>
            80.1303125,7.0427012,0
          </coordinates>
        </Point>
      </Placemark>
    </Folder>
  </Document>
</kml>
