<?xml version="1.0" encoding="UTF-8"?>
<kml xmlns="http://www.opengis.net/kml/2.2">
  <Document>
    <name>Directions from Homagama to Pettah CTB bus stand, Olcott Mawatha, Colombo</name>
    <Style id="icon-1899-DB4436-nodesc-normal">
      <IconStyle>
        <color>ff3644db</color>
        <scale>1</scale>
        <Icon>
          <href>https://www.gstatic.com/mapspro/images/stock/503-wht-blank_maps.png</href>
        </Icon>
        <hotSpot x="32" xunits="pixels" y="64" yunits="insetPixels"/>
      </IconStyle>
      <LabelStyle>
        <scale>0</scale>
      </LabelStyle>
      <BalloonStyle>
        <text><![CDATA[<h3>$[name]</h3>]]></text>
      </BalloonStyle>
    </Style>
    <Style id="icon-1899-DB4436-nodesc-highlight">
      <IconStyle>
        <color>ff3644db</color>
        <scale>1</scale>
        <Icon>
          <href>https://www.gstatic.com/mapspro/images/stock/503-wht-blank_maps.png</href>
        </Icon>
        <hotSpot x="32" xunits="pixels" y="64" yunits="insetPixels"/>
      </IconStyle>
      <LabelStyle>
        <scale>1</scale>
      </LabelStyle>
      <BalloonStyle>
        <text><![CDATA[<h3>$[name]</h3>]]></text>
      </BalloonStyle>
    </Style>
    <StyleMap id="icon-1899-DB4436-nodesc">
      <Pair>
        <key>normal</key>
        <styleUrl>#icon-1899-DB4436-nodesc-normal</styleUrl>
      </Pair>
      <Pair>
        <key>highlight</key>
        <styleUrl>#icon-1899-DB4436-nodesc-highlight</styleUrl>
      </Pair>
    </StyleMap>
    <Style id="line-1267FF-5000-nodesc-normal">
      <LineStyle>
        <color>ffff6712</color>
        <width>5</width>
      </LineStyle>
      <BalloonStyle>
        <text><![CDATA[<h3>$[name]</h3>]]></text>
      </BalloonStyle>
    </Style>
    <Style id="line-1267FF-5000-nodesc-highlight">
      <LineStyle>
        <color>ffff6712</color>
        <width>7.5</width>
      </LineStyle>
      <BalloonStyle>
        <text><![CDATA[<h3>$[name]</h3>]]></text>
      </BalloonStyle>
    </Style>
    <StyleMap id="line-1267FF-5000-nodesc">
      <Pair>
        <key>normal</key>
        <styleUrl>#line-1267FF-5000-nodesc-normal</styleUrl>
      </Pair>
      <Pair>
        <key>highlight</key>
        <styleUrl>#line-1267FF-5000-nodesc-highlight</styleUrl>
      </Pair>
    </StyleMap>
    <Placemark>
      <name>Directions from Homagama to Pettah CTB bus stand, Olcott Mawatha, Colombo</name>
      <styleUrl>#line-1267FF-5000-nodesc</styleUrl>
      <LineString>
        <tessellate>1</tessellate>
        <coordinates>
          79.99968,6.8402,0
          79.99972,6.84027,0
          79.99977,6.84039,0
          79.99979,6.84042,0
          79.99981,6.84043,0
          80.00002,6.84095,0
          80.00002,6.84094,0
          79.99931,6.84086,0
          79.9993,6.84085,0
          79.99924,6.84085,0
          79.9984,6.84069,0
          79.99806,6.8406,0
          79.99754,6.8405,0
          79.9949,6.83986,0
          79.99429,6.83975,0
          79.99375,6.8397,0
          79.99329,6.8397,0
          79.99249,6.83974,0
          79.99191,6.83973,0
          79.99095,6.83961,0
          79.98918,6.83946,0
          79.98908,6.83944,0
          79.98906,6.83944,0
          79.98903,6.83943,0
          79.98856,6.83935,0
          79.98801,6.83922,0
          79.98729,6.83898,0
          79.98709,6.8389,0
          79.98699,6.83885,0
          79.98691,6.83882,0
          79.98651,6.83862,0
          79.98569,6.83817,0
          79.98529,6.83799,0
          79.98528,6.83798,0
          79.98504,6.83787,0
          79.98486,6.83777,0
          79.98485,6.83777,0
          79.9848,6.83774,0
          79.98442,6.83756,0
          79.98434,6.83753,0
          79.98417,6.83749,0
          79.98415,6.83748,0
          79.98378,6.83743,0
          79.98329,6.83744,0
          79.983,6.83751,0
          79.98197,6.8379,0
          79.98172,6.83798,0
          79.98155,6.83805,0
          79.9811,6.83818,0
          79.98092,6.83825,0
          79.98022,6.83844,0
          79.98001,6.83852,0
          79.97996,6.83853,0
          79.97984,6.83857,0
          79.97982,6.83857,0
          79.9797,6.8386,0
          79.97965,6.83862,0
          79.97948,6.83865,0
          79.97909,6.83869,0
          79.97867,6.83878,0
          79.97858,6.83881,0
          79.97857,6.83881,0
          79.97807,6.83901,0
          79.97775,6.83917,0
          79.97737,6.83933,0
          79.97706,6.83941,0
          79.97689,6.83944,0
          79.97677,6.83945,0
          79.97652,6.83945,0
          79.9765,6.83943,0
          79.97649,6.83943,0
          79.97649,6.83942,0
          79.97646,6.83942,0
          79.97646,6.83941,0
          79.97638,6.83941,0
          79.97638,6.83942,0
          79.97636,6.83942,0
          79.97635,6.83943,0
          79.97634,6.83943,0
          79.97634,6.83944,0
          79.97633,6.83944,0
          79.97631,6.83946,0
          79.97631,6.83947,0
          79.9763,6.83947,0
          79.9763,6.8395,0
          79.97629,6.83951,0
          79.97629,6.83955,0
          79.9763,6.83956,0
          79.9763,6.83958,0
          79.97631,6.83959,0
          79.97631,6.8396,0
          79.97635,6.83964,0
          79.97636,6.83964,0
          79.97637,6.83965,0
          79.97638,6.83965,0
          79.97639,6.83966,0
          79.97646,6.83966,0
          79.97647,6.83965,0
          79.97649,6.83965,0
          79.97651,6.83963,0
          79.97652,6.83963,0
          79.97652,6.83962,0
          79.97653,6.83962,0
          79.97653,6.83961,0
          79.97654,6.83961,0
          79.97654,6.8396,0
          79.97671,6.83958,0
          79.97669,6.83983,0
          79.97668,6.83988,0
          79.97662,6.83999,0
          79.97647,6.84014,0
          79.97641,6.84018,0
          79.97637,6.8402,0
          79.97629,6.84012,0
          79.97621,6.84008,0
          79.97619,6.84006,0
          79.97617,6.84001,0
          79.97617,6.83993,0
          79.9762,6.83989,0
          79.97623,6.83986,0
          79.97626,6.83984,0
          79.97647,6.83965,0
          79.97649,6.83965,0
          79.97651,6.83963,0
          79.97652,6.83963,0
          79.97652,6.83962,0
          79.97653,6.83962,0
          79.97653,6.83961,0
          79.97654,6.83961,0
          79.97654,6.8396,0
          79.97655,6.83959,0
          79.97655,6.83957,0
          79.97656,6.83956,0
          79.97656,6.83951,0
          79.97655,6.8395,0
          79.97655,6.83948,0
          79.97654,6.83948,0
          79.97654,6.83947,0
          79.97653,6.83946,0
          79.97653,6.83945,0
          79.97652,6.83945,0
          79.9765,6.83943,0
          79.97649,6.83943,0
          79.97649,6.83942,0
          79.97646,6.83942,0
          79.97646,6.83941,0
          79.97638,6.83941,0
          79.97638,6.83942,0
          79.97636,6.83942,0
          79.97635,6.83943,0
          79.97634,6.83943,0
          79.97634,6.83944,0
          79.97633,6.83944,0
          79.97631,6.83946,0
          79.97631,6.83947,0
          79.97582,6.83951,0
          79.9757,6.83951,0
          79.97547,6.83948,0
          79.97494,6.83937,0
          79.9748,6.8393,0
          79.97424,6.83912,0
          79.97394,6.83905,0
          79.97366,6.83901,0
          79.97313,6.83902,0
          79.97274,6.83906,0
          79.9724,6.83912,0
          79.97219,6.83918,0
          79.97146,6.83935,0
          79.97127,6.83937,0
          79.9711,6.83937,0
          79.97039,6.83933,0
          79.97033,6.83932,0
          79.96977,6.83931,0
          79.96942,6.83935,0
          79.96912,6.83941,0
          79.96877,6.83951,0
          79.96842,6.83964,0
          79.96832,6.8397,0
          79.96817,6.83977,0
          79.96764,6.84008,0
          79.96625,6.84079,0
          79.96571,6.84102,0
          79.96539,6.84114,0
          79.96538,6.84114,0
          79.96515,6.84125,0
          79.96454,6.84146,0
          79.9645,6.84145,0
          79.96447,6.84145,0
          79.96446,6.84146,0
          79.96443,6.84146,0
          79.96441,6.84147,0
          79.9644,6.84148,0
          79.96439,6.84148,0
          79.96435,6.84152,0
          79.96418,6.84153,0
          79.96389,6.84157,0
          79.96332,6.84169,0
          79.96295,6.84181,0
          79.96271,6.84193,0
          79.96105,6.84299,0
          79.96093,6.84305,0
          79.96092,6.84306,0
          79.96077,6.84313,0
          79.96077,6.84314,0
          79.96051,6.84324,0
          79.96022,6.84333,0
          79.95997,6.84338,0
          79.9595,6.84345,0
          79.95789,6.84356,0
          79.95749,6.84356,0
          79.95714,6.84361,0
          79.95696,6.84366,0
          79.95252,6.84563,0
          79.95167,6.84588,0
          79.95149,6.84591,0
          79.95142,6.84593,0
          79.94942,6.84613,0
          79.94841,6.84635,0
          79.94824,6.84637,0
          79.94814,6.84637,0
          79.94782,6.84634,0
          79.94704,6.84616,0
          79.94332,6.84518,0
          79.94192,6.84497,0
          79.9419,6.84496,0
          79.94158,6.84491,0
          79.94126,6.84489,0
          79.94104,6.84491,0
          79.93979,6.84513,0
          79.93918,6.84528,0
          79.93846,6.84543,0
          79.93751,6.84552,0
          79.9374,6.84552,0
          79.93658,6.84544,0
          79.93622,6.84538,0
          79.93588,6.84528,0
          79.93461,6.84478,0
          79.93425,6.84466,0
          79.93401,6.8446,0
          79.93386,6.84458,0
          79.93365,6.84457,0
          79.93216,6.84469,0
          79.93194,6.84469,0
          79.93145,6.84472,0
          79.93079,6.84481,0
          79.93057,6.84488,0
          79.93047,6.84489,0
          79.93035,6.84494,0
          79.9303,6.84495,0
          79.93028,6.84497,0
          79.92995,6.84512,0
          79.92946,6.84538,0
          79.92754,6.84653,0
          79.92658,6.84718,0
          79.92655,6.84721,0
          79.92645,6.84727,0
          79.92579,6.84775,0
          79.92552,6.84797,0
          79.92424,6.84911,0
          79.92285,6.85004,0
          79.92284,6.85004,0
          79.92258,6.85022,0
          79.92085,6.8513,0
          79.9207,6.85138,0
          79.92069,6.85139,0
          79.92016,6.85165,0
          79.91878,6.85216,0
          79.91821,6.85229,0
          79.91807,6.85231,0
          79.91804,6.85232,0
          79.9179,6.85234,0
          79.91754,6.85235,0
          79.91732,6.85237,0
          79.91666,6.85238,0
          79.91647,6.85241,0
          79.91628,6.85246,0
          79.91612,6.85252,0
          79.91584,6.85267,0
          79.91555,6.85294,0
          79.91555,6.85295,0
          79.91549,6.85301,0
          79.91548,6.85301,0
          79.91479,6.85381,0
          79.91461,6.85404,0
          79.91435,6.85431,0
          79.91392,6.8547,0
          79.9134,6.85502,0
          79.91304,6.85518,0
          79.91153,6.85597,0
          79.91127,6.85609,0
          79.91126,6.8561,0
          79.91124,6.8561,0
          79.91039,6.85651,0
          79.90965,6.85683,0
          79.90935,6.85698,0
          79.90894,6.85726,0
          79.90878,6.8574,0
          79.90865,6.85753,0
          79.90851,6.85769,0
          79.90838,6.8578,0
          79.90645,6.85983,0
          79.90625,6.86006,0
          79.90555,6.86097,0
          79.90538,6.8611,0
          79.90521,6.86121,0
          79.90443,6.86159,0
          79.90174,6.86281,0
          79.90133,6.86297,0
          79.90076,6.86313,0
          79.90074,6.86314,0
          79.89969,6.86342,0
          79.89963,6.86345,0
          79.89945,6.86352,0
          79.89919,6.86365,0
          79.89763,6.86456,0
          79.8968,6.86497,0
          79.89621,6.86522,0
          79.89587,6.86533,0
          79.89586,6.86534,0
          79.89571,6.86538,0
          79.89532,6.86544,0
          79.89514,6.86545,0
          79.89493,6.86548,0
          79.8947,6.86549,0
          79.89452,6.86553,0
          79.89432,6.86559,0
          79.89405,6.86571,0
          79.89389,6.86582,0
          79.89376,6.86596,0
          79.8936,6.86618,0
          79.89354,6.86633,0
          79.89324,6.86694,0
          79.89316,6.86707,0
          79.89305,6.8673,0
          79.89296,6.86742,0
          79.89285,6.86754,0
          79.89248,6.86788,0
          79.89224,6.86806,0
          79.89215,6.86814,0
          79.89198,6.86826,0
          79.89151,6.86851,0
          79.89054,6.86892,0
          79.89036,6.86902,0
          79.88915,6.86951,0
          79.88914,6.86952,0
          79.88863,6.86971,0
          79.88859,6.86972,0
          79.88744,6.87019,0
          79.88743,6.8702,0
          79.88728,6.87028,0
          79.88727,6.87029,0
          79.88684,6.87053,0
          79.88665,6.87065,0
          79.88649,6.87073,0
          79.88547,6.87132,0
          79.88545,6.87132,0
          79.88477,6.87171,0
          79.88472,6.87173,0
          79.88325,6.87252,0
          79.88273,6.87284,0
          79.88257,6.87297,0
          79.88256,6.87297,0
          79.88221,6.8733,0
          79.88212,6.8734,0
          79.88203,6.87353,0
          79.8819,6.87375,0
          79.8818,6.87395,0
          79.88118,6.87535,0
          79.88115,6.8754,0
          79.881,6.87576,0
          79.88078,6.87616,0
          79.88078,6.87617,0
          79.88053,6.87659,0
          79.88048,6.87662,0
          79.88032,6.8768,0
          79.88016,6.87695,0
          79.88013,6.87697,0
          79.88002,6.87707,0
          79.87989,6.87717,0
          79.87968,6.87731,0
          79.87965,6.87732,0
          79.8796,6.87736,0
          79.8795,6.8774,0
          79.87944,6.87744,0
          79.879,6.87759,0
          79.87768,6.87789,0
          79.87658,6.87819,0
          79.87596,6.87833,0
          79.87594,6.87834,0
          79.87557,6.87841,0
          79.87519,6.87846,0
          79.87454,6.87858,0
          79.87432,6.8786,0
          79.87395,6.87866,0
          79.87363,6.87866,0
          79.87342,6.87864,0
          79.87315,6.87858,0
          79.87274,6.87851,0
          79.87245,6.87844,0
          79.87233,6.87843,0
          79.87228,6.87842,0
          79.87217,6.87842,0
          79.87204,6.87844,0
          79.87185,6.87851,0
          79.87183,6.87853,0
          79.87181,6.87854,0
          79.8718,6.87855,0
          79.87179,6.87855,0
          79.87178,6.87858,0
          79.8717,6.87861,0
          79.87162,6.87866,0
          79.8715,6.87876,0
          79.87145,6.87879,0
          79.87131,6.87893,0
          79.87128,6.87899,0
          79.87125,6.87902,0
          79.87086,6.87983,0
          79.87066,6.88017,0
          79.87017,6.88118,0
          79.87014,6.88121,0
          79.87013,6.88123,0
          79.87011,6.88125,0
          79.86999,6.88148,0
          79.86997,6.8815,0
          79.86996,6.88152,0
          79.8699,6.88156,0
          79.86981,6.8816,0
          79.86974,6.8816,0
          79.86973,6.88161,0
          79.86972,6.88161,0
          79.86971,6.88162,0
          79.8697,6.88162,0
          79.86967,6.88165,0
          79.86967,6.88166,0
          79.86966,6.88166,0
          79.86966,6.88168,0
          79.86965,6.88169,0
          79.86964,6.88171,0
          79.86964,6.8819,0
          79.86961,6.882,0
          79.86957,6.88207,0
          79.86943,6.88226,0
          79.8694,6.88233,0
          79.8692,6.88258,0
          79.86895,6.88281,0
          79.86885,6.88292,0
          79.86825,6.88368,0
          79.86823,6.88375,0
          79.86798,6.88405,0
          79.86792,6.88414,0
          79.86779,6.88428,0
          79.86769,6.88441,0
          79.86763,6.88447,0
          79.8676,6.88451,0
          79.86737,6.88474,0
          79.86604,6.88564,0
          79.86595,6.88571,0
          79.86585,6.88577,0
          79.86556,6.88603,0
          79.86553,6.88607,0
          79.86551,6.88608,0
          79.86546,6.88615,0
          79.86541,6.8862,0
          79.8649,6.88691,0
          79.86454,6.88746,0
          79.86451,6.88752,0
          79.86448,6.88755,0
          79.86445,6.88757,0
          79.86441,6.88763,0
          79.86422,6.88819,0
          79.86373,6.89042,0
          79.86366,6.89064,0
          79.86359,6.8908,0
          79.86343,6.891,0
          79.86281,6.89156,0
          79.86253,6.89185,0
          79.86246,6.89195,0
          79.86225,6.89235,0
          79.8622,6.89247,0
          79.86219,6.89251,0
          79.86219,6.89258,0
          79.86216,6.89265,0
          79.86209,6.89289,0
          79.86207,6.89293,0
          79.86193,6.89351,0
          79.8618,6.8939,0
          79.86172,6.89408,0
          79.86159,6.89433,0
          79.86137,6.8946,0
          79.86111,6.89488,0
          79.86098,6.89506,0
          79.86064,6.89569,0
          79.86041,6.89606,0
          79.86022,6.8963,0
          79.86008,6.89644,0
          79.85993,6.89664,0
          79.8599,6.89669,0
          79.85986,6.89683,0
          79.85982,6.89701,0
          79.85976,6.89737,0
          79.85984,6.89753,0
          79.85984,6.89759,0
          79.85985,6.89761,0
          79.85985,6.89763,0
          79.85986,6.89764,0
          79.85987,6.89766,0
          79.85987,6.89767,0
          79.85988,6.89767,0
          79.85988,6.89768,0
          79.85989,6.89768,0
          79.85989,6.89769,0
          79.85991,6.89769,0
          79.85991,6.8977,0
          79.85993,6.8977,0
          79.85994,6.89771,0
          79.85995,6.89771,0
          79.85996,6.89772,0
          79.86005,6.89772,0
          79.86006,6.89771,0
          79.86007,6.89771,0
          79.86008,6.8977,0
          79.86009,6.8977,0
          79.86014,6.89765,0
          79.86015,6.89763,0
          79.86015,6.89757,0
          79.86014,6.89756,0
          79.86014,6.89753,0
          79.86013,6.89753,0
          79.86013,6.89752,0
          79.86012,6.89751,0
          79.86012,6.8975,0
          79.86011,6.89749,0
          79.8601,6.89749,0
          79.8601,6.89748,0
          79.86009,6.89747,0
          79.86008,6.89747,0
          79.86006,6.89745,0
          79.86004,6.89745,0
          79.86003,6.89744,0
          79.86001,6.89743,0
          79.85993,6.89743,0
          79.85993,6.89744,0
          79.85991,6.89744,0
          79.85989,6.89746,0
          79.85988,6.89746,0
          79.85988,6.89747,0
          79.85986,6.89749,0
          79.85986,6.8975,0
          79.85985,6.8975,0
          79.85985,6.89751,0
          79.85984,6.89753,0
          79.85984,6.89759,0
          79.85985,6.89761,0
          79.85985,6.89763,0
          79.85986,6.89764,0
          79.85987,6.89766,0
          79.85987,6.89767,0
          79.85988,6.89767,0
          79.85988,6.89768,0
          79.85989,6.89768,0
          79.85989,6.89769,0
          79.85991,6.89769,0
          79.85991,6.8977,0
          79.85992,6.8977,0
          79.85999,6.89784,0
          79.86028,6.89825,0
          79.86046,6.89855,0
          79.86047,6.8986,0
          79.86048,6.89862,0
          79.86048,6.89873,0
          79.86044,6.89884,0
          79.8604,6.89888,0
          79.86039,6.89891,0
          79.86003,6.89922,0
          79.85995,6.8993,0
          79.85982,6.89955,0
          79.85883,6.90264,0
          79.85864,6.90317,0
          79.85844,6.9038,0
          79.85843,6.90389,0
          79.85843,6.90396,0
          79.85842,6.90403,0
          79.85842,6.90418,0
          79.85852,6.90492,0
          79.85852,6.905,0
          79.85857,6.90536,0
          79.85859,6.90561,0
          79.85879,6.90581,0
          79.85919,6.90613,0
          79.85942,6.90635,0
          79.85962,6.90661,0
          79.86047,6.90787,0
          79.86055,6.90808,0
          79.86069,6.90872,0
          79.86072,6.90909,0
          79.86082,6.90922,0
          79.86088,6.90927,0
          79.86134,6.90923,0
          79.86135,6.90924,0
          79.86136,6.90924,0
          79.86137,6.90925,0
          79.8615,6.90926,0
          79.86156,6.90928,0
          79.86158,6.90928,0
          79.86174,6.90933,0
          79.86248,6.90951,0
          79.86268,6.90958,0
          79.8627,6.90958,0
          79.86273,6.9096,0
          79.86279,6.90962,0
          79.86312,6.90977,0
          79.86321,6.90983,0
          79.86326,6.90988,0
          79.86335,6.90995,0
          79.86375,6.91037,0
          79.86379,6.91043,0
          79.86414,6.91084,0
          79.86441,6.91122,0
          79.86443,6.91127,0
          79.86445,6.91136,0
          79.86443,6.91156,0
          79.86441,6.91158,0
          79.8644,6.91158,0
          79.8644,6.91159,0
          79.86439,6.9116,0
          79.86439,6.91162,0
          79.86438,6.91163,0
          79.86438,6.91172,0
          79.86439,6.91174,0
          79.86439,6.91176,0
          79.86441,6.91181,0
          79.86442,6.91182,0
          79.86443,6.91182,0
          79.86443,6.91183,0
          79.86445,6.91184,0
          79.86446,6.91185,0
          79.86447,6.91185,0
          79.86448,6.91186,0
          79.86451,6.91186,0
          79.86457,6.91192,0
          79.86467,6.91204,0
          79.8647,6.91211,0
          79.86473,6.91216,0
          79.86477,6.91228,0
          79.8648,6.91249,0
          79.86481,6.91281,0
          79.86478,6.91286,0
          79.86476,6.91292,0
          79.86476,6.91295,0
          79.86475,6.91298,0
          79.86475,6.91302,0
          79.86468,6.91369,0
          79.86464,6.91389,0
          79.86461,6.91396,0
          79.86446,6.91409,0
          79.86442,6.91416,0
          79.86276,6.91551,0
          79.86283,6.91557,0
          79.86312,6.91592,0
          79.86404,6.91518,0
          79.8642,6.91541,0
          79.86441,6.91567,0
          79.86393,6.91604,0
          79.86441,6.91567,0
          79.8642,6.91541,0
          79.86404,6.91518,0
          79.86369,6.91474,0
          79.86238,6.91582,0
          79.86235,6.91581,0
          79.86232,6.91581,0
          79.86232,6.9158,0
          79.86231,6.9158,0
          79.8623,6.91581,0
          79.86226,6.91581,0
          79.86225,6.91582,0
          79.86224,6.91582,0
          79.86222,6.91584,0
          79.86221,6.91584,0
          79.86221,6.91585,0
          79.86213,6.91585,0
          79.86206,6.91584,0
          79.86202,6.91584,0
          79.8619,6.91582,0
          79.86185,6.9158,0
          79.86184,6.91579,0
          79.86145,6.9156,0
          79.86082,6.91526,0
          79.86081,6.91526,0
          79.86021,6.91493,0
          79.85815,6.91368,0
          79.85813,6.91366,0
          79.85807,6.91357,0
          79.85802,6.91344,0
          79.85798,6.91325,0
          79.85799,6.91258,0
          79.85804,6.91226,0
          79.85803,6.91209,0
          79.85802,6.91204,0
          79.85802,6.912,0
          79.85797,6.91191,0
          79.85794,6.91188,0
          79.8579,6.91185,0
          79.85785,6.91183,0
          79.85776,6.91181,0
          79.85673,6.91183,0
          79.85611,6.91188,0
          79.85609,6.91191,0
          79.85605,6.91203,0
          79.85602,6.91208,0
          79.85591,6.91235,0
          79.85587,6.91242,0
          79.85576,6.91268,0
          79.85572,6.91282,0
          79.85572,6.91287,0
          79.85571,6.91292,0
          79.85571,6.91305,0
          79.85572,6.9131,0
          79.85572,6.91316,0
          79.85596,6.91443,0
          79.85596,6.91447,0
          79.85599,6.91461,0
          79.856,6.91473,0
          79.85599,6.91512,0
          79.85598,6.91522,0
          79.85598,6.9153,0
          79.85596,6.91548,0
          79.85595,6.91551,0
          79.85591,6.91573,0
          79.85571,6.91621,0
          79.85558,6.91641,0
          79.85514,6.91698,0
          79.85489,6.91726,0
          79.85488,6.91728,0
          79.85474,6.91746,0
          79.85452,6.91781,0
          79.85406,6.91875,0
          79.85356,6.91994,0
          79.85343,6.92018,0
          79.85299,6.92116,0
          79.85257,6.92247,0
          79.85253,6.9225,0
          79.85244,6.92273,0
          79.85237,6.92283,0
          79.85196,6.92322,0
          79.85078,6.92383,0
          79.85074,6.9239,0
          79.85071,6.92393,0
          79.85071,6.92394,0
          79.85066,6.92398,0
          79.85055,6.92451,0
          79.85051,6.92485,0
          79.85042,6.9252,0
          79.85025,6.9264,0
          79.85024,6.92643,0
          79.85024,6.92645,0
          79.85019,6.92675,0
          79.85016,6.92682,0
          79.85014,6.92689,0
          79.85011,6.92696,0
          79.84999,6.92714,0
          79.84997,6.92718,0
          79.84966,6.92746,0
          79.84962,6.92751,0
          79.84954,6.92759,0
          79.84943,6.92772,0
          79.84939,6.92775,0
          79.84835,6.92894,0
          79.84738,6.93026,0
          79.84717,6.93067,0
          79.8471,6.93086,0
          79.8469,6.93174,0
          79.84684,6.93193,0
          79.84676,6.93204,0
          79.84652,6.93227,0
          79.84645,6.93231,0
          79.84638,6.93236,0
          79.84623,6.93244,0
          79.84622,6.93245,0
          79.84621,6.93245,0
          79.84617,6.93247,0
          79.84553,6.93289,0
          79.84485,6.93324,0
          79.84474,6.93335,0
          79.84471,6.93347,0
          79.84474,6.93384,0
          79.8448,6.934,0
          79.84481,6.93401,0
          79.84483,6.93407,0
          79.84485,6.9341,0
          79.84486,6.93413,0
          79.84489,6.93416,0
          79.84497,6.93422,0
          79.84502,6.93424,0
          79.84503,6.93424,0
          79.84504,6.93425,0
          79.84512,6.93426,0
          79.84532,6.93423,0
          79.84536,6.93423,0
          79.84593,6.9341,0
          79.84686,6.93393,0
          79.84699,6.93395,0
          79.84717,6.934,0
          79.84725,6.93403,0
          79.84753,6.93408,0
          79.84767,6.93412,0
          79.84769,6.93412,0
          79.84805,6.9342,0
          79.8483,6.93423,0
          79.84866,6.93423,0
          79.85019,6.93413,0
          79.85054,6.93418,0
          79.8507,6.93422,0
          79.85263,6.93487,0
          79.85304,6.93499,0
          79.85315,6.93501,0
          79.85322,6.93501,0
          79.8533,6.93502,0
          79.85346,6.93502,0
          79.85374,6.93497,0
          79.85414,6.93475,0
          79.85415,6.93474,0
        </coordinates>
      </LineString>
    </Placemark>
    <Placemark>
      <name>Homagama</name>
      <styleUrl>#icon-1899-DB4436-nodesc</styleUrl>
      <Point>
        <coordinates>
          79.9996818,6.8402013,0
        </coordinates>
      </Point>
    </Placemark>
    <Placemark>
      <name><![CDATA[Makumbura Highway bus & train station, Avissawella Road, Pannipitiya]]></name>
      <styleUrl>#icon-1899-DB4436-nodesc</styleUrl>
      <Point>
        <coordinates>
          79.976214,6.8400796,0
        </coordinates>
      </Point>
    </Placemark>
    <Placemark>
      <name>Kottawa Town, Pannipitiya</name>
      <styleUrl>#icon-1899-DB4436-nodesc</styleUrl>
      <Point>
        <coordinates>
          79.9654182,6.8411277,0
        </coordinates>
      </Point>
    </Placemark>
    <Placemark>
      <name>Pannipitiya Junction, Pannipitiya</name>
      <styleUrl>#icon-1899-DB4436-nodesc</styleUrl>
      <Point>
        <coordinates>
          79.9484106,6.8463502,0
        </coordinates>
      </Point>
    </Placemark>
    <Placemark>
      <name>Maharagama</name>
      <styleUrl>#icon-1899-DB4436-nodesc</styleUrl>
      <Point>
        <coordinates>
          79.9211993,6.8510747,0
        </coordinates>
      </Point>
    </Placemark>
    <Placemark>
      <name>Nugegoda Flyover, Nugegoda</name>
      <styleUrl>#icon-1899-DB4436-nodesc</styleUrl>
      <Point>
        <coordinates>
          79.8883152,6.8698308,0
        </coordinates>
      </Point>
    </Placemark>
    <Placemark>
      <name>Thummulla Junction, Thummulla</name>
      <styleUrl>#icon-1899-DB4436-nodesc</styleUrl>
      <Point>
        <coordinates>
          79.8600847,6.8974699,0
        </coordinates>
      </Point>
    </Placemark>
    <Placemark>
      <name>Town Hall, Colombo</name>
      <styleUrl>#icon-1899-DB4436-nodesc</styleUrl>
      <Point>
        <coordinates>
          79.8639315,6.9160362,0
        </coordinates>
      </Point>
    </Placemark>
    <Placemark>
      <name>Lake House Junction, A4, Colombo</name>
      <styleUrl>#icon-1899-DB4436-nodesc</styleUrl>
      <Point>
        <coordinates>
          79.8466861,6.9321118,0
        </coordinates>
      </Point>
    </Placemark>
    <Placemark>
      <name>Pettah CTB bus stand, Olcott Mawatha, Colombo</name>
      <styleUrl>#icon-1899-DB4436-nodesc</styleUrl>
      <Point>
        <coordinates>
          79.8541463,6.9347439,0
        </coordinates>
      </Point>
    </Placemark>
  </Document>
</kml>
