<?xml version="1.0" encoding="UTF-8"?>
<kml xmlns="http://www.opengis.net/kml/2.2">
  <Document>
    <name>Untitled map</name>
    <description/>
    <Style id="icon-1899-0288D1-nodesc-normal">
      <IconStyle>
        <color>ffd18802</color>
        <scale>1</scale>
        <Icon>
          <href>https://www.gstatic.com/mapspro/images/stock/503-wht-blank_maps.png</href>
        </Icon>
        <hotSpot x="32" xunits="pixels" y="64" yunits="insetPixels"/>
      </IconStyle>
      <LabelStyle>
        <scale>0</scale>
      </LabelStyle>
      <BalloonStyle>
        <text><![CDATA[<h3>$[name]</h3>]]></text>
      </BalloonStyle>
    </Style>
    <Style id="icon-1899-0288D1-nodesc-highlight">
      <IconStyle>
        <color>ffd18802</color>
        <scale>1</scale>
        <Icon>
          <href>https://www.gstatic.com/mapspro/images/stock/503-wht-blank_maps.png</href>
        </Icon>
        <hotSpot x="32" xunits="pixels" y="64" yunits="insetPixels"/>
      </IconStyle>
      <LabelStyle>
        <scale>1</scale>
      </LabelStyle>
      <BalloonStyle>
        <text><![CDATA[<h3>$[name]</h3>]]></text>
      </BalloonStyle>
    </Style>
    <StyleMap id="icon-1899-0288D1-nodesc">
      <Pair>
        <key>normal</key>
        <styleUrl>#icon-1899-0288D1-nodesc-normal</styleUrl>
      </Pair>
      <Pair>
        <key>highlight</key>
        <styleUrl>#icon-1899-0288D1-nodesc-highlight</styleUrl>
      </Pair>
    </StyleMap>
    <Style id="icon-1899-DB4436-nodesc-normal">
      <IconStyle>
        <color>ff3644db</color>
        <scale>1</scale>
        <Icon>
          <href>https://www.gstatic.com/mapspro/images/stock/503-wht-blank_maps.png</href>
        </Icon>
        <hotSpot x="32" xunits="pixels" y="64" yunits="insetPixels"/>
      </IconStyle>
      <LabelStyle>
        <scale>0</scale>
      </LabelStyle>
      <BalloonStyle>
        <text><![CDATA[<h3>$[name]</h3>]]></text>
      </BalloonStyle>
    </Style>
    <Style id="icon-1899-DB4436-nodesc-highlight">
      <IconStyle>
        <color>ff3644db</color>
        <scale>1</scale>
        <Icon>
          <href>https://www.gstatic.com/mapspro/images/stock/503-wht-blank_maps.png</href>
        </Icon>
        <hotSpot x="32" xunits="pixels" y="64" yunits="insetPixels"/>
      </IconStyle>
      <LabelStyle>
        <scale>1</scale>
      </LabelStyle>
      <BalloonStyle>
        <text><![CDATA[<h3>$[name]</h3>]]></text>
      </BalloonStyle>
    </Style>
    <StyleMap id="icon-1899-DB4436-nodesc">
      <Pair>
        <key>normal</key>
        <styleUrl>#icon-1899-DB4436-nodesc-normal</styleUrl>
      </Pair>
      <Pair>
        <key>highlight</key>
        <styleUrl>#icon-1899-DB4436-nodesc-highlight</styleUrl>
      </Pair>
    </StyleMap>
    <Style id="line-1267FF-5000-nodesc-normal">
      <LineStyle>
        <color>ffff6712</color>
        <width>5</width>
      </LineStyle>
      <BalloonStyle>
        <text><![CDATA[<h3>$[name]</h3>]]></text>
      </BalloonStyle>
    </Style>
    <Style id="line-1267FF-5000-nodesc-highlight">
      <LineStyle>
        <color>ffff6712</color>
        <width>7.5</width>
      </LineStyle>
      <BalloonStyle>
        <text><![CDATA[<h3>$[name]</h3>]]></text>
      </BalloonStyle>
    </Style>
    <StyleMap id="line-1267FF-5000-nodesc">
      <Pair>
        <key>normal</key>
        <styleUrl>#line-1267FF-5000-nodesc-normal</styleUrl>
      </Pair>
      <Pair>
        <key>highlight</key>
        <styleUrl>#line-1267FF-5000-nodesc-highlight</styleUrl>
      </Pair>
    </StyleMap>
    <Folder>
      <name>Directions from Moratuwa Bus Station, Moratuwa to Kadawatha bus stand, Kadawatha - Ganemulla Road, Kadawatha</name>
      <Placemark>
        <name>Directions from Moratuwa Bus Station, Moratuwa to Kadawatha bus stand, Kadawatha - Ganemulla Road, Kadawatha</name>
        <styleUrl>#line-1267FF-5000-nodesc</styleUrl>
        <LineString>
          <tessellate>1</tessellate>
          <coordinates>
            79.88265,6.77441,0
            79.88266,6.77435,0
            79.88269,6.77425,0
            79.8827,6.77415,0
            79.8829,6.7731,0
            79.88294,6.77294,0
            79.88306,6.77235,0
            79.88308,6.77219,0
            79.88311,6.77205,0
            79.88315,6.77164,0
            79.88317,6.77131,0
            79.88317,6.77089,0
            79.8831,6.77088,0
            79.8831,6.77118,0
            79.88307,6.77148,0
            79.88307,6.77153,0
            79.88305,6.7717,0
            79.88303,6.77202,0
            79.88292,6.77268,0
            79.88288,6.77282,0
            79.88264,6.77408,0
            79.88237,6.77535,0
            79.88227,6.77595,0
            79.88223,6.77633,0
            79.88222,6.77713,0
            79.88223,6.77718,0
            79.88223,6.77726,0
            79.88225,6.77753,0
            79.88232,6.77795,0
            79.88235,6.77809,0
            79.88242,6.77831,0
            79.88244,6.77842,0
            79.88258,6.77885,0
            79.88277,6.77932,0
            79.88287,6.77951,0
            79.88297,6.77968,0
            79.88335,6.7805,0
            79.88338,6.78059,0
            79.88374,6.78146,0
            79.88378,6.78161,0
            79.8838,6.78165,0
            79.88381,6.78171,0
            79.88411,6.78288,0
            79.88429,6.78369,0
            79.88436,6.78429,0
            79.88443,6.78461,0
            79.88444,6.78471,0
            79.88444,6.78474,0
            79.88456,6.78602,0
            79.88458,6.78652,0
            79.88463,6.7869,0
            79.88466,6.78705,0
            79.88474,6.78734,0
            79.88492,6.78784,0
            79.88495,6.78794,0
            79.88495,6.78796,0
            79.88494,6.78796,0
            79.88494,6.78798,0
            79.88493,6.78798,0
            79.88493,6.78806,0
            79.88494,6.78807,0
            79.88494,6.78809,0
            79.88495,6.78809,0
            79.88495,6.7881,0
            79.88496,6.7881,0
            79.88496,6.78811,0
            79.88497,6.78812,0
            79.88498,6.78812,0
            79.88498,6.78813,0
            79.88499,6.78813,0
            79.88501,6.78815,0
            79.88504,6.78815,0
            79.88529,6.78868,0
            79.88534,6.7888,0
            79.88537,6.7889,0
            79.88543,6.78905,0
            79.88551,6.78922,0
            79.88566,6.78962,0
            79.88573,6.78977,0
            79.88629,6.79118,0
            79.88629,6.79119,0
            79.88676,6.79241,0
            79.88691,6.79289,0
            79.88706,6.79329,0
            79.88707,6.79331,0
            79.88719,6.79366,0
            79.88725,6.7938,0
            79.88741,6.79413,0
            79.88796,6.79542,0
            79.888,6.79554,0
            79.88802,6.79557,0
            79.88831,6.79639,0
            79.88831,6.79642,0
            79.88839,6.79675,0
            79.88842,6.79685,0
            79.88847,6.7973,0
            79.88847,6.79737,0
            79.88848,6.79747,0
            79.88873,6.79745,0
            79.88884,6.79742,0
            79.89073,6.79777,0
            79.89103,6.7978,0
            79.89113,6.7978,0
            79.89126,6.79778,0
            79.89154,6.79772,0
            79.89203,6.79758,0
            79.89218,6.79752,0
            79.89233,6.79747,0
            79.89255,6.79737,0
            79.89291,6.79718,0
            79.89322,6.79703,0
            79.89331,6.79698,0
            79.8935,6.7969,0
            79.89364,6.79687,0
            79.89407,6.79681,0
            79.89409,6.7968,0
            79.89414,6.79679,0
            79.89537,6.79645,0
            79.89551,6.79642,0
            79.89559,6.79641,0
            79.89582,6.79636,0
            79.89595,6.79634,0
            79.89599,6.79634,0
            79.89649,6.79622,0
            79.89765,6.79583,0
            79.89767,6.79582,0
            79.89835,6.79564,0
            79.89915,6.79555,0
            79.89937,6.7955,0
            79.89951,6.79546,0
            79.89996,6.79529,0
            79.90001,6.79526,0
            79.9009,6.79489,0
            79.9016,6.79466,0
            79.90204,6.79448,0
            79.90221,6.79447,0
            79.90235,6.79448,0
            79.90237,6.79449,0
            79.90243,6.79451,0
            79.90254,6.79456,0
            79.90257,6.79459,0
            79.90262,6.79465,0
            79.90265,6.79468,0
            79.90294,6.79505,0
            79.90309,6.7952,0
            79.90313,6.79523,0
            79.90314,6.79523,0
            79.90315,6.79524,0
            79.90321,6.79528,0
            79.90332,6.79533,0
            79.90337,6.79534,0
            79.90352,6.79534,0
            79.90358,6.79533,0
            79.90362,6.79533,0
            79.90366,6.79532,0
            79.90372,6.79529,0
            79.90388,6.79517,0
            79.90403,6.79501,0
            79.90426,6.79501,0
            79.90456,6.79505,0
            79.90498,6.79509,0
            79.90524,6.79509,0
            79.90529,6.79508,0
            79.90535,6.79506,0
            79.90538,6.79504,0
            79.90546,6.795,0
            79.9055,6.79495,0
            79.90572,6.79443,0
            79.90575,6.79428,0
            79.90578,6.7942,0
            79.90583,6.79401,0
            79.90589,6.79388,0
            79.90594,6.79382,0
            79.90599,6.79377,0
            79.90605,6.79373,0
            79.9061,6.79369,0
            79.90617,6.79365,0
            79.90624,6.79362,0
            79.90631,6.79361,0
            79.90637,6.79359,0
            79.90645,6.79358,0
            79.90652,6.79358,0
            79.90663,6.7936,0
            79.90676,6.79364,0
            79.90681,6.79367,0
            79.9069,6.79374,0
            79.90704,6.79392,0
            79.90744,6.79449,0
            79.90757,6.79469,0
            79.90777,6.7949,0
            79.908,6.79512,0
            79.90827,6.79543,0
            79.90843,6.79559,0
            79.90909,6.7961,0
            79.90936,6.79638,0
            79.90959,6.79673,0
            79.9097,6.79687,0
            79.90976,6.79692,0
            79.90979,6.79696,0
            79.9099,6.79705,0
            79.91017,6.79724,0
            79.91036,6.79736,0
            79.91064,6.79749,0
            79.91098,6.79762,0
            79.91127,6.79776,0
            79.91136,6.79779,0
            79.91147,6.79781,0
            79.91153,6.79781,0
            79.9116,6.7978,0
            79.91247,6.79773,0
            79.91261,6.79773,0
            79.91279,6.79775,0
            79.91291,6.79778,0
            79.91328,6.79791,0
            79.91349,6.79801,0
            79.91357,6.79804,0
            79.91432,6.79837,0
            79.91442,6.79842,0
            79.9146,6.79849,0
            79.91474,6.79853,0
            79.91479,6.79855,0
            79.91497,6.79859,0
            79.91514,6.79864,0
            79.91566,6.79875,0
            79.91572,6.79875,0
            79.91579,6.79876,0
            79.91629,6.79875,0
            79.91638,6.79874,0
            79.91649,6.79874,0
            79.91655,6.79875,0
            79.9166,6.79875,0
            79.91666,6.79876,0
            79.91686,6.79882,0
            79.91702,6.79888,0
            79.91707,6.79889,0
            79.91715,6.79892,0
            79.91722,6.79894,0
            79.91739,6.79897,0
            79.91751,6.79897,0
            79.91778,6.79899,0
            79.91783,6.79899,0
            79.91797,6.79901,0
            79.91797,6.79902,0
            79.91809,6.79904,0
            79.91826,6.79909,0
            79.91837,6.79913,0
            79.91882,6.79934,0
            79.91895,6.79939,0
            79.91901,6.79942,0
            79.91906,6.79946,0
            79.91912,6.79949,0
            79.91917,6.79953,0
            79.91921,6.79957,0
            79.91931,6.79969,0
            79.9194,6.79985,0
            79.91952,6.80019,0
            79.9196,6.80032,0
            79.91966,6.80039,0
            79.91968,6.80042,0
            79.91978,6.80054,0
            79.91983,6.80059,0
            79.91989,6.80064,0
            79.92003,6.80073,0
            79.92065,6.80103,0
            79.92073,6.80106,0
            79.9208,6.80108,0
            79.92082,6.80109,0
            79.92117,6.8012,0
            79.92202,6.80143,0
            79.92238,6.80156,0
            79.92244,6.8016,0
            79.92268,6.80173,0
            79.92272,6.80178,0
            79.92299,6.80152,0
            79.92342,6.80099,0
            79.92392,6.80042,0
            79.92423,6.80018,0
            79.92434,6.80012,0
            79.92447,6.80006,0
            79.92507,6.79986,0
            79.92509,6.8001,0
            79.92509,6.80023,0
            79.92508,6.80038,0
            79.92509,6.80046,0
            79.92512,6.80061,0
            79.92512,6.80062,0
            79.92513,6.80066,0
            79.92518,6.80078,0
            79.92529,6.80099,0
            79.92538,6.80122,0
            79.92542,6.80137,0
            79.92546,6.80157,0
            79.92548,6.80163,0
            79.92552,6.80195,0
            79.92553,6.80217,0
            79.92549,6.80252,0
            79.92544,6.80273,0
            79.92544,6.80274,0
            79.92537,6.80294,0
            79.92517,6.80332,0
            79.92487,6.80379,0
            79.92511,6.80395,0
            79.92531,6.80406,0
            79.92538,6.80411,0
            79.9254,6.80413,0
            79.92543,6.80415,0
            79.92547,6.80419,0
            79.92554,6.80424,0
            79.92566,6.80437,0
            79.92572,6.80447,0
            79.92574,6.80454,0
            79.9258,6.80467,0
            79.92583,6.80472,0
            79.92599,6.80483,0
            79.92605,6.80489,0
            79.92613,6.80503,0
            79.92617,6.80519,0
            79.92628,6.80552,0
            79.92914,6.80336,0
            79.92952,6.80314,0
            79.93018,6.80282,0
            79.93096,6.80257,0
            79.93203,6.80237,0
            79.93286,6.80219,0
            79.93325,6.80209,0
            79.9337,6.80195,0
            79.93416,6.80178,0
            79.93432,6.80171,0
            79.93531,6.80116,0
            79.93558,6.80099,0
            79.93566,6.80095,0
            79.9358,6.8009,0
            79.9361,6.80082,0
            79.93729,6.8006,0
            79.93734,6.80058,0
            79.93757,6.80054,0
            79.93777,6.80049,0
            79.93815,6.80034,0
            79.93851,6.80017,0
            79.93884,6.79997,0
            79.93938,6.79958,0
            79.93964,6.79929,0
            79.94007,6.79852,0
            79.94054,6.79761,0
            79.94061,6.79741,0
            79.94067,6.79717,0
            79.94072,6.79691,0
            79.94072,6.79689,0
            79.94084,6.79609,0
            79.94086,6.79601,0
            79.94086,6.79591,0
            79.94087,6.79582,0
            79.94086,6.79576,0
            79.94086,6.79566,0
            79.94084,6.79556,0
            79.9411,6.79534,0
            79.94121,6.79523,0
            79.94169,6.7949,0
            79.94188,6.79479,0
            79.94221,6.79462,0
            79.9425,6.79451,0
            79.94276,6.79444,0
            79.94286,6.79439,0
            79.94366,6.79408,0
            79.94464,6.79378,0
            79.94509,6.79354,0
            79.94551,6.79337,0
            79.94726,6.79258,0
            79.94761,6.79245,0
            79.94772,6.79243,0
            79.9478,6.7924,0
            79.94798,6.79236,0
            79.94815,6.79231,0
            79.9485,6.79223,0
            79.94888,6.79216,0
            79.94976,6.79192,0
            79.94994,6.79185,0
            79.95015,6.79179,0
            79.95016,6.79179,0
            79.95042,6.79172,0
            79.95059,6.79166,0
            79.95071,6.79163,0
            79.95088,6.7916,0
            79.95156,6.79143,0
            79.95175,6.79136,0
            79.95182,6.79134,0
            79.95203,6.79125,0
            79.95216,6.79121,0
            79.95236,6.79112,0
            79.95248,6.79108,0
            79.95259,6.79103,0
            79.95281,6.79095,0
            79.95305,6.79089,0
            79.95375,6.79084,0
            79.95404,6.7908,0
            79.95406,6.7908,0
            79.95418,6.79077,0
            79.95426,6.79074,0
            79.9544,6.79067,0
            79.95445,6.79065,0
            79.95474,6.79043,0
            79.95479,6.7904,0
            79.95483,6.79037,0
            79.955,6.79028,0
            79.95503,6.79027,0
            79.95541,6.7901,0
            79.9556,6.79003,0
            79.9558,6.78997,0
            79.95621,6.78993,0
            79.95652,6.78994,0
            79.95674,6.78989,0
            79.95702,6.78978,0
            79.95734,6.78954,0
            79.95748,6.78945,0
            79.95763,6.78933,0
            79.95777,6.7892,0
            79.958,6.78892,0
            79.9581,6.78877,0
            79.95815,6.78871,0
            79.9583,6.78857,0
            79.95851,6.78842,0
            79.95853,6.78841,0
            79.95878,6.78823,0
            79.95881,6.78822,0
            79.95909,6.78804,0
            79.95912,6.78803,0
            79.95927,6.78793,0
            79.95974,6.78765,0
            79.9606,6.78723,0
            79.96102,6.78715,0
            79.96123,6.78715,0
            79.96143,6.78722,0
            79.96162,6.78724,0
            79.96165,6.78725,0
            79.96208,6.78728,0
            79.96215,6.78728,0
            79.96301,6.78719,0
            79.96308,6.78719,0
            79.96334,6.78716,0
            79.96383,6.78713,0
            79.96398,6.78713,0
            79.96445,6.7871,0
            79.96462,6.78707,0
            79.96479,6.78703,0
            79.96489,6.78699,0
            79.9661,6.78642,0
            79.96667,6.78619,0
            79.9675,6.78598,0
            79.96763,6.78596,0
            79.96776,6.78596,0
            79.96793,6.78598,0
            79.96813,6.78602,0
            79.96824,6.78608,0
            79.96835,6.78613,0
            79.96846,6.78621,0
            79.96883,6.78642,0
            79.96917,6.78656,0
            79.96937,6.78663,0
            79.96951,6.78666,0
            79.96965,6.78668,0
            79.96993,6.78666,0
            79.97016,6.7866,0
            79.97026,6.78656,0
            79.97031,6.78653,0
            79.97045,6.78646,0
            79.9706,6.78636,0
            79.97082,6.78624,0
            79.97089,6.78622,0
            79.97106,6.78619,0
            79.97123,6.78615,0
            79.9714,6.78613,0
            79.97157,6.78612,0
            79.97174,6.78612,0
            79.97194,6.78615,0
            79.97239,6.78629,0
            79.97256,6.78632,0
            79.97273,6.78634,0
            79.97282,6.78634,0
            79.97394,6.78625,0
            79.97407,6.78623,0
            79.97411,6.78623,0
            79.97434,6.7862,0
            79.97444,6.78617,0
            79.97459,6.78611,0
            79.97474,6.78602,0
            79.97481,6.78596,0
            79.97493,6.78584,0
            79.97499,6.78576,0
            79.97503,6.78568,0
            79.97508,6.7856,0
            79.97515,6.78544,0
            79.97529,6.78519,0
            79.97533,6.78514,0
            79.97538,6.78509,0
            79.97553,6.78496,0
            79.9757,6.78486,0
            79.97585,6.7848,0
            79.97607,6.78474,0
            79.97629,6.78466,0
            79.97648,6.78456,0
            79.97674,6.78445,0
            79.97688,6.7844,0
            79.97697,6.78438,0
            79.97714,6.78438,0
            79.97743,6.78441,0
            79.97867,6.78445,0
            79.9792,6.78445,0
            79.97931,6.78443,0
            79.97935,6.78443,0
            79.97954,6.78439,0
            79.97972,6.78434,0
            79.98003,6.78423,0
            79.98014,6.78477,0
            79.98031,6.78545,0
            79.98037,6.78563,0
            79.98038,6.78568,0
            79.98047,6.78595,0
            79.98059,6.78625,0
            79.98066,6.78645,0
            79.98067,6.78647,0
            79.98072,6.78662,0
            79.98073,6.78663,0
            79.98077,6.78677,0
            79.98085,6.787,0
            79.98103,6.78771,0
            79.98106,6.78777,0
            79.9811,6.78782,0
            79.98194,6.79188,0
            79.98195,6.79195,0
            79.98253,6.79477,0
            79.98256,6.79487,0
            79.98298,6.79693,0
            79.98302,6.79709,0
            79.98341,6.79913,0
            79.98348,6.79958,0
            79.9835,6.79976,0
            79.98354,6.79998,0
            79.98358,6.8003,0
            79.98361,6.80047,0
            79.98391,6.80279,0
            79.98394,6.80297,0
            79.98441,6.80672,0
            79.98443,6.80683,0
            79.98443,6.8069,0
            79.98446,6.80708,0
            79.9845,6.80743,0
            79.98453,6.80761,0
            79.9853,6.81366,0
            79.9853,6.81369,0
            79.98533,6.81386,0
            79.98588,6.81821,0
            79.98595,6.81889,0
            79.98602,6.82015,0
            79.98602,6.8209,0
            79.98601,6.82115,0
            79.98601,6.82157,0
            79.98596,6.82245,0
            79.98591,6.82299,0
            79.98579,6.82396,0
            79.98556,6.82524,0
            79.98547,6.82565,0
            79.98547,6.82567,0
            79.9852,6.82675,0
            79.98502,6.82736,0
            79.98408,6.83005,0
            79.98406,6.83013,0
            79.98304,6.83306,0
            79.98303,6.83307,0
            79.9818,6.83663,0
            79.98156,6.83737,0
            79.98155,6.83739,0
            79.9809,6.8392,0
            79.9809,6.83922,0
            79.98084,6.83936,0
            79.98075,6.83965,0
            79.98072,6.83972,0
            79.98027,6.84104,0
            79.98026,6.84106,0
            79.97988,6.84241,0
            79.9796,6.84349,0
            79.97917,6.8454,0
            79.97905,6.84612,0
            79.97903,6.8463,0
            79.97902,6.84631,0
            79.97898,6.84665,0
            79.97895,6.84683,0
            79.97891,6.84719,0
            79.9789,6.84737,0
            79.97884,6.8479,0
            79.97865,6.85008,0
            79.97853,6.85109,0
            79.97835,6.85237,0
            79.97819,6.85333,0
            79.97818,6.85343,0
            79.97805,6.85415,0
            79.97787,6.85547,0
            79.97778,6.85647,0
            79.97773,6.85745,0
            79.97771,6.85833,0
            79.97772,6.85913,0
            79.97776,6.86004,0
            79.97781,6.86068,0
            79.97792,6.86174,0
            79.97792,6.86177,0
            79.97799,6.86239,0
            79.97799,6.86246,0
            79.97822,6.86458,0
            79.97831,6.86578,0
            79.97837,6.86745,0
            79.97837,6.86835,0
            79.97834,6.86953,0
            79.97828,6.87051,0
            79.97807,6.87275,0
            79.97805,6.87282,0
            79.97787,6.87407,0
            79.97778,6.8746,0
            79.97778,6.87461,0
            79.9775,6.87619,0
            79.97713,6.87788,0
            79.97684,6.8794,0
            79.9767,6.88036,0
            79.97668,6.88044,0
            79.97668,6.88089,0
            79.97659,6.88191,0
            79.97654,6.88305,0
            79.97653,6.88437,0
            79.97662,6.88599,0
            79.97668,6.88663,0
            79.97679,6.88755,0
            79.97702,6.88893,0
            79.97728,6.89011,0
            79.97819,6.89359,0
            79.97827,6.89395,0
            79.97828,6.89398,0
            79.97865,6.89558,0
            79.97874,6.89608,0
            79.97885,6.8966,0
            79.97912,6.8982,0
            79.97916,6.89851,0
            79.97917,6.89855,0
            79.97921,6.89887,0
            79.97922,6.89891,0
            79.97927,6.89925,0
            79.97927,6.89927,0
            79.9794,6.90034,0
            79.9794,6.90039,0
            79.97944,6.9007,0
            79.97944,6.90074,0
            79.97946,6.90087,0
            79.97951,6.90147,0
            79.97967,6.90296,0
            79.97975,6.90356,0
            79.97975,6.90359,0
            79.97978,6.90373,0
            79.97979,6.90383,0
            79.97981,6.90391,0
            79.97983,6.90409,0
            79.98003,6.90521,0
            79.98035,6.9067,0
            79.98057,6.90761,0
            79.98087,6.90868,0
            79.98097,6.90899,0
            79.98098,6.90904,0
            79.9816,6.91087,0
            79.98161,6.91087,0
            79.98174,6.91125,0
            79.98183,6.91146,0
            79.98189,6.91163,0
            79.98213,6.91221,0
            79.98216,6.91227,0
            79.98226,6.91254,0
            79.9823,6.91262,0
            79.98233,6.91271,0
            79.98248,6.91304,0
            79.98292,6.91417,0
            79.98301,6.91447,0
            79.9832,6.91522,0
            79.9832,6.91526,0
            79.98324,6.91543,0
            79.98331,6.91597,0
            79.98333,6.91641,0
            79.98331,6.91694,0
            79.98329,6.91718,0
            79.98324,6.91756,0
            79.9832,6.91774,0
            79.9832,6.91776,0
            79.98313,6.91804,0
            79.98307,6.91823,0
            79.98306,6.91828,0
            79.98292,6.91871,0
            79.98275,6.91912,0
            79.98265,6.91932,0
            79.98226,6.92,0
            79.98158,6.92094,0
            79.98099,6.92162,0
            79.98076,6.92186,0
            79.98051,6.92215,0
            79.98021,6.92246,0
            79.98007,6.92259,0
            79.97997,6.9227,0
            79.97952,6.92307,0
            79.97915,6.92342,0
            79.97782,6.92445,0
            79.97674,6.92523,0
            79.97671,6.92526,0
            79.97562,6.92611,0
            79.9756,6.92612,0
            79.97547,6.92622,0
            79.97521,6.92644,0
            79.97488,6.92674,0
            79.97439,6.92723,0
            79.97357,6.92819,0
            79.97299,6.92913,0
            79.97294,6.92924,0
            79.97288,6.92934,0
            79.97271,6.92969,0
            79.97238,6.93045,0
            79.97219,6.93096,0
            79.97205,6.93143,0
            79.97197,6.93175,0
            79.97179,6.93262,0
            79.97175,6.93294,0
            79.97174,6.93296,0
            79.97164,6.93387,0
            79.9716,6.93475,0
            79.97161,6.93498,0
            79.97161,6.93562,0
            79.97163,6.93598,0
            79.97163,6.93613,0
            79.97169,6.93706,0
            79.97176,6.93768,0
            79.97177,6.93769,0
            79.97194,6.93868,0
            79.97204,6.93916,0
            79.97208,6.93928,0
            79.97225,6.93992,0
            79.97245,6.94058,0
            79.97266,6.9412,0
            79.97292,6.94189,0
            79.97332,6.94288,0
            79.97363,6.94353,0
            79.97381,6.94388,0
            79.97424,6.94478,0
            79.97454,6.94549,0
            79.97501,6.94673,0
            79.97505,6.94681,0
            79.97525,6.94741,0
            79.97593,6.94964,0
            79.97621,6.95087,0
            79.97631,6.95169,0
            79.97635,6.9523,0
            79.97637,6.9524,0
            79.97644,6.95312,0
            79.97643,6.95443,0
            79.97644,6.95466,0
            79.97645,6.95586,0
            79.97636,6.9569,0
            79.97618,6.95843,0
            79.97611,6.9589,0
            79.9761,6.95894,0
            79.97605,6.95924,0
            79.9759,6.95996,0
            79.9759,6.95999,0
            79.9757,6.96083,0
            79.9757,6.96085,0
            79.97557,6.96136,0
            79.97509,6.96303,0
            79.97482,6.9639,0
            79.97477,6.96402,0
            79.97449,6.96487,0
            79.97418,6.96572,0
            79.97416,6.96579,0
            79.97405,6.96609,0
            79.97349,6.96749,0
            79.97346,6.96759,0
            79.97309,6.9685,0
            79.97305,6.96858,0
            79.97305,6.96859,0
            79.97265,6.96951,0
            79.97218,6.97049,0
            79.97216,6.97054,0
            79.97172,6.97139,0
            79.97158,6.97169,0
            79.97143,6.97198,0
            79.97119,6.97249,0
            79.97115,6.97259,0
            79.97105,6.97279,0
            79.97102,6.97287,0
            79.97068,6.97363,0
            79.97007,6.9751,0
            79.97006,6.97514,0
            79.9695,6.97661,0
            79.96948,6.97665,0
            79.96862,6.97919,0
            79.96858,6.97927,0
            79.96855,6.97935,0
            79.96855,6.97937,0
            79.96854,6.97938,0
            79.96854,6.97958,0
            79.96844,6.97983,0
            79.96837,6.98006,0
            79.96798,6.98106,0
            79.96776,6.98157,0
            79.9677,6.98174,0
            79.96765,6.98183,0
            79.96751,6.98215,0
            79.96735,6.98247,0
            79.96735,6.98248,0
            79.96731,6.98255,0
            79.96724,6.98272,0
            79.967,6.98321,0
            79.9667,6.98376,0
            79.96665,6.98384,0
            79.96653,6.98411,0
            79.96642,6.98432,0
            79.96635,6.98448,0
            79.96565,6.98587,0
            79.96553,6.98615,0
            79.96552,6.98616,0
            79.96547,6.98626,0
            79.9653,6.98666,0
            79.96517,6.98692,0
            79.96514,6.98697,0
            79.9651,6.98708,0
            79.96508,6.98712,0
            79.96507,6.98713,0
            79.9647,6.98806,0
            79.96437,6.98882,0
            79.96414,6.98941,0
            79.96365,6.99081,0
            79.9634,6.99161,0
            79.96329,6.99191,0
            79.96292,6.99306,0
            79.9627,6.99385,0
            79.96266,6.99396,0
            79.96262,6.99417,0
            79.96218,6.99553,0
            79.96196,6.99647,0
            79.96157,6.99864,0
            79.96149,6.99925,0
            79.96145,6.99932,0
            79.96142,6.99936,0
            79.96131,6.99965,0
            79.9613,6.99972,0
            79.96122,6.99999,0
            79.96112,7.00014,0
            79.96111,7.00015,0
            79.96096,7.00024,0
            79.96054,7.00036,0
            79.96048,7.00037,0
            79.96044,7.00039,0
            79.96033,7.00043,0
            79.96024,7.00049,0
            79.96021,7.00054,0
            79.96018,7.00057,0
            79.96015,7.00063,0
            79.96013,7.00072,0
            79.96011,7.00102,0
            79.96011,7.00119,0
            79.9601,7.00136,0
            79.96009,7.00241,0
            79.95983,7.00244,0
            79.95981,7.00244,0
            79.95952,7.0025,0
            79.95929,7.00256,0
            79.95871,7.00275,0
            79.95819,7.00288,0
            79.95803,7.00291,0
            79.95759,7.00297,0
            79.9574,7.00298,0
            79.95702,7.00298,0
            79.95686,7.00299,0
            79.95631,7.003,0
            79.95632,7.00307,0
            79.95631,7.00319,0
            79.9564,7.00327,0
            79.95644,7.00334,0
            79.95651,7.0035,0
            79.95656,7.00369,0
            79.95657,7.00375,0
            79.95658,7.00387,0
            79.95659,7.00446,0
            79.95657,7.00465,0
            79.95455,7.00471,0
            79.95428,7.00469,0
            79.95427,7.00468,0
            79.95427,7.00467,0
            79.95426,7.00467,0
            79.95425,7.00466,0
            79.9542,7.00466,0
            79.95419,7.00467,0
            79.95418,7.00469,0
            79.95417,7.0047,0
            79.95417,7.00475,0
            79.95418,7.00476,0
            79.95418,7.00477,0
            79.95419,7.00478,0
            79.95426,7.00496,0
            79.95426,7.005,0
            79.95446,7.00493,0
            79.95482,7.0049,0
            79.95484,7.00491,0
            79.95486,7.00514,0
            79.95465,7.00514,0
          </coordinates>
        </LineString>
      </Placemark>
      <Placemark>
        <name>Moratuwa Bus Station, Moratuwa</name>
        <styleUrl>#icon-1899-DB4436-nodesc</styleUrl>
        <Point>
          <coordinates>
            79.8826495,6.7744082,0
          </coordinates>
        </Point>
      </Placemark>
      <Placemark>
        <name>Kadawatha bus stand, Kadawatha - Ganemulla Road, Kadawatha</name>
        <styleUrl>#icon-1899-DB4436-nodesc</styleUrl>
        <Point>
          <coordinates>
            79.9546506,7.0051439,0
          </coordinates>
        </Point>
      </Placemark>
    </Folder>
    <Folder>
      <name>Bus stops</name>
      <Placemark>
        <name>Katubedda junction</name>
        <styleUrl>#icon-1899-0288D1-nodesc</styleUrl>
        <Point>
          <coordinates>
            79.8886078,6.7974443,0
          </coordinates>
        </Point>
      </Placemark>
      <Placemark>
        <name>University of Moratuwa</name>
        <styleUrl>#icon-1899-0288D1-nodesc</styleUrl>
        <Point>
          <coordinates>
            79.900867,6.7951276,0
          </coordinates>
        </Point>
      </Placemark>
      <Placemark>
        <name>Kahathuduwa Interchange</name>
        <styleUrl>#icon-1899-0288D1-nodesc</styleUrl>
        <Point>
          <coordinates>
            79.9804648,6.7843134,0
          </coordinates>
        </Point>
      </Placemark>
      <Placemark>
        <name>Piliyandala Clock Tower</name>
        <styleUrl>#icon-1899-0288D1-nodesc</styleUrl>
        <Point>
          <coordinates>
            79.9229531,6.8013625,0
          </coordinates>
        </Point>
      </Placemark>
      <Placemark>
        <name>PILIYANDALA BUS STAND</name>
        <styleUrl>#icon-1899-0288D1-nodesc</styleUrl>
        <Point>
          <coordinates>
            79.9251804,6.8022457,0
          </coordinates>
        </Point>
      </Placemark>
      <Placemark>
        <name>Kadawatha Exit</name>
        <styleUrl>#icon-1899-0288D1-nodesc</styleUrl>
        <Point>
          <coordinates>
            79.9601148,7.0010163,0
          </coordinates>
        </Point>
      </Placemark>
      <Placemark>
        <name>BING CHUN - Kadawatha</name>
        <styleUrl>#icon-1899-0288D1-nodesc</styleUrl>
        <Point>
          <coordinates>
            79.9564216,7.0043898,0
          </coordinates>
        </Point>
      </Placemark>
    </Folder>
  </Document>
</kml>
