<?xml version="1.0" encoding="UTF-8"?>
<kml xmlns="http://www.opengis.net/kml/2.2">
  <Document>
    <name>Untitled map</name>
    <description/>
    <Style id="icon-1899-0288D1-nodesc-normal">
      <IconStyle>
        <color>ffd18802</color>
        <scale>1</scale>
        <Icon>
          <href>https://www.gstatic.com/mapspro/images/stock/503-wht-blank_maps.png</href>
        </Icon>
        <hotSpot x="32" xunits="pixels" y="64" yunits="insetPixels"/>
      </IconStyle>
      <LabelStyle>
        <scale>0</scale>
      </LabelStyle>
      <BalloonStyle>
        <text><![CDATA[<h3>$[name]</h3>]]></text>
      </BalloonStyle>
    </Style>
    <Style id="icon-1899-0288D1-nodesc-highlight">
      <IconStyle>
        <color>ffd18802</color>
        <scale>1</scale>
        <Icon>
          <href>https://www.gstatic.com/mapspro/images/stock/503-wht-blank_maps.png</href>
        </Icon>
        <hotSpot x="32" xunits="pixels" y="64" yunits="insetPixels"/>
      </IconStyle>
      <LabelStyle>
        <scale>1</scale>
      </LabelStyle>
      <BalloonStyle>
        <text><![CDATA[<h3>$[name]</h3>]]></text>
      </BalloonStyle>
    </Style>
    <StyleMap id="icon-1899-0288D1-nodesc">
      <Pair>
        <key>normal</key>
        <styleUrl>#icon-1899-0288D1-nodesc-normal</styleUrl>
      </Pair>
      <Pair>
        <key>highlight</key>
        <styleUrl>#icon-1899-0288D1-nodesc-highlight</styleUrl>
      </Pair>
    </StyleMap>
    <Style id="icon-1899-DB4436-nodesc-normal">
      <IconStyle>
        <color>ff3644db</color>
        <scale>1</scale>
        <Icon>
          <href>https://www.gstatic.com/mapspro/images/stock/503-wht-blank_maps.png</href>
        </Icon>
        <hotSpot x="32" xunits="pixels" y="64" yunits="insetPixels"/>
      </IconStyle>
      <LabelStyle>
        <scale>0</scale>
      </LabelStyle>
      <BalloonStyle>
        <text><![CDATA[<h3>$[name]</h3>]]></text>
      </BalloonStyle>
    </Style>
    <Style id="icon-1899-DB4436-nodesc-highlight">
      <IconStyle>
        <color>ff3644db</color>
        <scale>1</scale>
        <Icon>
          <href>https://www.gstatic.com/mapspro/images/stock/503-wht-blank_maps.png</href>
        </Icon>
        <hotSpot x="32" xunits="pixels" y="64" yunits="insetPixels"/>
      </IconStyle>
      <LabelStyle>
        <scale>1</scale>
      </LabelStyle>
      <BalloonStyle>
        <text><![CDATA[<h3>$[name]</h3>]]></text>
      </BalloonStyle>
    </Style>
    <StyleMap id="icon-1899-DB4436-nodesc">
      <Pair>
        <key>normal</key>
        <styleUrl>#icon-1899-DB4436-nodesc-normal</styleUrl>
      </Pair>
      <Pair>
        <key>highlight</key>
        <styleUrl>#icon-1899-DB4436-nodesc-highlight</styleUrl>
      </Pair>
    </StyleMap>
    <Style id="line-1267FF-5000-nodesc-normal">
      <LineStyle>
        <color>ffff6712</color>
        <width>5</width>
      </LineStyle>
      <BalloonStyle>
        <text><![CDATA[<h3>$[name]</h3>]]></text>
      </BalloonStyle>
    </Style>
    <Style id="line-1267FF-5000-nodesc-highlight">
      <LineStyle>
        <color>ffff6712</color>
        <width>7.5</width>
      </LineStyle>
      <BalloonStyle>
        <text><![CDATA[<h3>$[name]</h3>]]></text>
      </BalloonStyle>
    </Style>
    <StyleMap id="line-1267FF-5000-nodesc">
      <Pair>
        <key>normal</key>
        <styleUrl>#line-1267FF-5000-nodesc-normal</styleUrl>
      </Pair>
      <Pair>
        <key>highlight</key>
        <styleUrl>#line-1267FF-5000-nodesc-highlight</styleUrl>
      </Pair>
    </StyleMap>
    <Folder>
      <name>UoM to Kottawa</name>
      <Placemark>
        <name>Piliyandala</name>
        <styleUrl>#icon-1899-0288D1-nodesc</styleUrl>
        <Point>
          <coordinates>
            79.9226645,6.8019189,0
          </coordinates>
        </Point>
      </Placemark>
      <Placemark>
        <name>Maviththara</name>
        <styleUrl>#icon-1899-0288D1-nodesc</styleUrl>
        <Point>
          <coordinates>
            79.9349204,6.8015497,0
          </coordinates>
        </Point>
      </Placemark>
      <Placemark>
        <name>kudamaduwa</name>
        <styleUrl>#icon-1899-0288D1-nodesc</styleUrl>
        <Point>
          <coordinates>
            79.9536604,6.8095232,0
          </coordinates>
        </Point>
      </Placemark>
      <Placemark>
        <name>Sikuradapola</name>
        <styleUrl>#icon-1899-0288D1-nodesc</styleUrl>
        <Point>
          <coordinates>
            79.9603566,6.8270223,0
          </coordinates>
        </Point>
      </Placemark>
    </Folder>
    <Folder>
      <name>Directions from UoM to RXR7+GWW, Avissawella Rd, Pannipitiya 10230, Sri Lanka</name>
      <Placemark>
        <name>Directions from UoM to RXR7+GWW, Avissawella Rd, Pannipitiya 10230, Sri Lanka</name>
        <styleUrl>#line-1267FF-5000-nodesc</styleUrl>
        <LineString>
          <tessellate>1</tessellate>
          <coordinates>
            79.90044,6.79652,0
            79.90085,6.79649,0
            79.90085,6.79631,0
            79.90084,6.79599,0
            79.90079,6.79537,0
            79.90077,6.79523,0
            79.90076,6.79505,0
            79.90076,6.79495,0
            79.9009,6.79489,0
            79.901,6.79486,0
            79.9016,6.79466,0
            79.90177,6.79459,0
            79.90179,6.79458,0
            79.90192,6.79453,0
            79.90204,6.79448,0
            79.90221,6.79447,0
            79.90233,6.79448,0
            79.90235,6.79448,0
            79.90237,6.79449,0
            79.90243,6.79451,0
            79.90252,6.79455,0
            79.90254,6.79456,0
            79.90257,6.79459,0
            79.90262,6.79465,0
            79.90265,6.79468,0
            79.90272,6.79477,0
            79.90276,6.79482,0
            79.90288,6.79497,0
            79.90294,6.79505,0
            79.903,6.79511,0
            79.90307,6.79518,0
            79.90309,6.7952,0
            79.90313,6.79523,0
            79.90314,6.79523,0
            79.90315,6.79524,0
            79.90321,6.79528,0
            79.90327,6.79531,0
            79.90332,6.79533,0
            79.90337,6.79534,0
            79.90342,6.79534,0
            79.90347,6.79534,0
            79.90352,6.79534,0
            79.90358,6.79533,0
            79.9036,6.79533,0
            79.90362,6.79533,0
            79.90366,6.79532,0
            79.90372,6.79529,0
            79.90379,6.79524,0
            79.90388,6.79517,0
            79.90394,6.79511,0
            79.90403,6.79501,0
            79.90426,6.79501,0
            79.90456,6.79505,0
            79.90475,6.79507,0
            79.90498,6.79509,0
            79.90503,6.79509,0
            79.90509,6.79509,0
            79.90516,6.79509,0
            79.90519,6.79509,0
            79.90524,6.79509,0
            79.90529,6.79508,0
            79.90532,6.79507,0
            79.90535,6.79506,0
            79.90538,6.79504,0
            79.9054,6.79503,0
            79.90546,6.795,0
            79.9055,6.79495,0
            79.90553,6.79488,0
            79.90572,6.79443,0
            79.90573,6.79439,0
            79.90575,6.79428,0
            79.90578,6.7942,0
            79.90583,6.79401,0
            79.90586,6.79394,0
            79.90589,6.79388,0
            79.90594,6.79382,0
            79.90599,6.79377,0
            79.90602,6.79375,0
            79.90605,6.79373,0
            79.9061,6.79369,0
            79.90617,6.79365,0
            79.90624,6.79362,0
            79.90631,6.79361,0
            79.90637,6.79359,0
            79.90645,6.79358,0
            79.90652,6.79358,0
            79.90658,6.79359,0
            79.90663,6.7936,0
            79.9067,6.79362,0
            79.90676,6.79364,0
            79.90681,6.79367,0
            79.90686,6.79371,0
            79.9069,6.79374,0
            79.90693,6.79378,0
            79.90697,6.79383,0
            79.90704,6.79392,0
            79.90722,6.79418,0
            79.90744,6.79449,0
            79.90749,6.79457,0
            79.90757,6.79469,0
            79.90763,6.79475,0
            79.90777,6.7949,0
            79.908,6.79512,0
            79.90821,6.79536,0
            79.90827,6.79543,0
            79.90835,6.79551,0
            79.90843,6.79559,0
            79.90849,6.79564,0
            79.90868,6.79578,0
            79.90876,6.79584,0
            79.90909,6.7961,0
            79.90916,6.79617,0
            79.90923,6.79624,0
            79.9093,6.79632,0
            79.90936,6.79638,0
            79.90941,6.79646,0
            79.90959,6.79673,0
            79.90964,6.79679,0
            79.9097,6.79687,0
            79.90976,6.79692,0
            79.90979,6.79696,0
            79.90984,6.797,0
            79.9099,6.79705,0
            79.91007,6.79717,0
            79.91013,6.79721,0
            79.91017,6.79724,0
            79.91028,6.79731,0
            79.91036,6.79736,0
            79.91064,6.79749,0
            79.91084,6.79757,0
            79.91092,6.7976,0
            79.91098,6.79762,0
            79.91104,6.79765,0
            79.91112,6.79769,0
            79.91127,6.79776,0
            79.91136,6.79779,0
            79.91142,6.7978,0
            79.91147,6.79781,0
            79.91153,6.79781,0
            79.9116,6.7978,0
            79.9119,6.79778,0
            79.9123,6.79774,0
            79.91247,6.79773,0
            79.91254,6.79773,0
            79.91261,6.79773,0
            79.91268,6.79774,0
            79.91279,6.79775,0
            79.91291,6.79778,0
            79.91303,6.79782,0
            79.91322,6.79789,0
            79.91328,6.79791,0
            79.91334,6.79794,0
            79.91349,6.79801,0
            79.91357,6.79804,0
            79.91394,6.7982,0
            79.91423,6.79833,0
            79.91432,6.79837,0
            79.91442,6.79842,0
            79.9146,6.79849,0
            79.91474,6.79853,0
            79.91479,6.79855,0
            79.91484,6.79856,0
            79.91493,6.79858,0
            79.91497,6.79859,0
            79.91514,6.79864,0
            79.9152,6.79865,0
            79.91528,6.79867,0
            79.91547,6.79871,0
            79.91557,6.79873,0
            79.91566,6.79875,0
            79.91572,6.79875,0
            79.91579,6.79876,0
            79.91585,6.79876,0
            79.9162,6.79875,0
            79.91629,6.79875,0
            79.91638,6.79874,0
            79.91649,6.79874,0
            79.91655,6.79875,0
            79.9166,6.79875,0
            79.91666,6.79876,0
            79.91686,6.79882,0
            79.91697,6.79886,0
            79.91702,6.79888,0
            79.91707,6.79889,0
            79.91715,6.79892,0
            79.91722,6.79894,0
            79.91728,6.79895,0
            79.91739,6.79897,0
            79.91751,6.79897,0
            79.91778,6.79899,0
            79.91783,6.79899,0
            79.91789,6.799,0
            79.91797,6.79901,0
            79.91797,6.79902,0
            79.91802,6.79903,0
            79.91809,6.79904,0
            79.91826,6.79909,0
            79.91837,6.79913,0
            79.91848,6.79918,0
            79.91865,6.79926,0
            79.9187,6.79928,0
            79.91882,6.79934,0
            79.9189,6.79937,0
            79.91895,6.79939,0
            79.91901,6.79942,0
            79.91906,6.79946,0
            79.91912,6.79949,0
            79.91917,6.79953,0
            79.91921,6.79957,0
            79.91924,6.79961,0
            79.91931,6.79969,0
            79.91934,6.79974,0
            79.91938,6.79981,0
            79.9194,6.79985,0
            79.91951,6.80016,0
            79.91952,6.80019,0
            79.9196,6.80032,0
            79.91966,6.80039,0
            79.91968,6.80042,0
            79.91969,6.80043,0
            79.91973,6.80048,0
            79.91978,6.80054,0
            79.91983,6.80059,0
            79.91989,6.80064,0
            79.91995,6.80068,0
            79.92003,6.80073,0
            79.92028,6.80085,0
            79.92049,6.80095,0
            79.92057,6.80099,0
            79.92065,6.80103,0
            79.92073,6.80106,0
            79.9208,6.80108,0
            79.92082,6.80109,0
            79.92088,6.80111,0
            79.921,6.80115,0
            79.92117,6.8012,0
            79.92148,6.80128,0
            79.92183,6.80138,0
            79.92186,6.80139,0
            79.92202,6.80143,0
            79.92218,6.80149,0
            79.92229,6.80153,0
            79.92238,6.80156,0
            79.92244,6.8016,0
            79.92261,6.80169,0
            79.92268,6.80173,0
            79.92272,6.80178,0
            79.92282,6.80187,0
            79.92293,6.80199,0
            79.92335,6.80253,0
            79.92338,6.80261,0
            79.92343,6.8028,0
            79.92349,6.80295,0
            79.92357,6.80308,0
            79.92363,6.80315,0
            79.9237,6.80322,0
            79.92379,6.80329,0
            79.92386,6.80334,0
            79.92398,6.80341,0
            79.9241,6.80347,0
            79.92419,6.8035,0
            79.92426,6.80352,0
            79.92427,6.80352,0
            79.92446,6.80357,0
            79.9245,6.80358,0
            79.92455,6.80361,0
            79.92458,6.80363,0
            79.92462,6.80365,0
            79.92487,6.80379,0
            79.92494,6.80384,0
            79.92511,6.80395,0
            79.92517,6.80398,0
            79.92531,6.80406,0
            79.92538,6.80411,0
            79.9254,6.80413,0
            79.92543,6.80415,0
            79.92547,6.80419,0
            79.92554,6.80424,0
            79.92566,6.80437,0
            79.92572,6.80447,0
            79.92574,6.80454,0
            79.92577,6.80461,0
            79.9258,6.80467,0
            79.92583,6.80472,0
            79.92587,6.80475,0
            79.92592,6.80478,0
            79.92596,6.80481,0
            79.92599,6.80483,0
            79.92602,6.80486,0
            79.92605,6.80489,0
            79.92607,6.80493,0
            79.92613,6.80503,0
            79.92617,6.80519,0
            79.92625,6.80543,0
            79.92628,6.80552,0
            79.92634,6.80547,0
            79.9266,6.80528,0
            79.92663,6.80526,0
            79.92805,6.80418,0
            79.92914,6.80336,0
            79.92952,6.80314,0
            79.92985,6.80298,0
            79.93018,6.80282,0
            79.93096,6.80257,0
            79.93203,6.80237,0
            79.93234,6.8023,0
            79.93267,6.80223,0
            79.93286,6.80219,0
            79.93305,6.80214,0
            79.93325,6.80209,0
            79.93342,6.80204,0
            79.9337,6.80195,0
            79.93397,6.80185,0
            79.93416,6.80178,0
            79.93432,6.80171,0
            79.93454,6.80159,0
            79.93471,6.8015,0
            79.93485,6.80147,0
            79.93489,6.80146,0
            79.93494,6.80145,0
            79.93497,6.80144,0
            79.935,6.80144,0
            79.93503,6.80145,0
            79.93507,6.80145,0
            79.9351,6.80146,0
            79.9352,6.80149,0
            79.93531,6.80159,0
            79.93541,6.80167,0
            79.9355,6.80176,0
            79.93565,6.8019,0
            79.93573,6.80196,0
            79.9358,6.80201,0
            79.93592,6.80209,0
            79.93599,6.80213,0
            79.93608,6.80219,0
            79.93623,6.80227,0
            79.93631,6.80232,0
            79.93641,6.80236,0
            79.93657,6.80245,0
            79.93666,6.80249,0
            79.93671,6.80251,0
            79.93672,6.80251,0
            79.9369,6.80257,0
            79.93703,6.8026,0
            79.93715,6.80263,0
            79.93731,6.80267,0
            79.93743,6.80269,0
            79.93763,6.80272,0
            79.93771,6.80274,0
            79.93775,6.80275,0
            79.93778,6.80275,0
            79.93779,6.80276,0
            79.93799,6.8028,0
            79.93816,6.80286,0
            79.93827,6.8029,0
            79.93852,6.803,0
            79.93867,6.80308,0
            79.9387,6.80309,0
            79.93879,6.80313,0
            79.93884,6.80316,0
            79.93902,6.80325,0
            79.93924,6.80337,0
            79.93925,6.80338,0
            79.93937,6.80344,0
            79.93949,6.8035,0
            79.93953,6.80352,0
            79.93976,6.80363,0
            79.93998,6.80372,0
            79.9402,6.80381,0
            79.94034,6.80385,0
            79.94047,6.80389,0
            79.94061,6.80392,0
            79.94083,6.80396,0
            79.94085,6.80397,0
            79.94102,6.80398,0
            79.94112,6.80399,0
            79.94128,6.80398,0
            79.94177,6.8039,0
            79.94182,6.8039,0
            79.94189,6.8039,0
            79.94195,6.8039,0
            79.94199,6.80392,0
            79.94201,6.80393,0
            79.94206,6.80395,0
            79.9421,6.80398,0
            79.94216,6.80403,0
            79.9422,6.80408,0
            79.94225,6.80411,0
            79.9423,6.80413,0
            79.94238,6.80417,0
            79.94246,6.80419,0
            79.94251,6.80419,0
            79.94253,6.80419,0
            79.94263,6.80419,0
            79.94283,6.80416,0
            79.94291,6.80415,0
            79.94297,6.80413,0
            79.94301,6.80412,0
            79.94307,6.8041,0
            79.94308,6.8041,0
            79.94318,6.80406,0
            79.94326,6.80403,0
            79.9433,6.80401,0
            79.94335,6.804,0
            79.94342,6.804,0
            79.94343,6.804,0
            79.94347,6.80399,0
            79.94353,6.80399,0
            79.94361,6.80401,0
            79.94406,6.80409,0
            79.94442,6.80416,0
            79.94444,6.80416,0
            79.9447,6.80425,0
            79.9449,6.80431,0
            79.9452,6.80442,0
            79.94528,6.80444,0
            79.94531,6.80444,0
            79.94535,6.80445,0
            79.94538,6.80445,0
            79.94545,6.80445,0
            79.94558,6.80444,0
            79.94575,6.80442,0
            79.94603,6.80437,0
            79.94628,6.80431,0
            79.94646,6.80428,0
            79.94653,6.80428,0
            79.94659,6.80429,0
            79.9467,6.80432,0
            79.94674,6.80435,0
            79.94678,6.80437,0
            79.94682,6.8044,0
            79.94689,6.80444,0
            79.94706,6.80461,0
            79.94715,6.80468,0
            79.94734,6.80483,0
            79.94735,6.80483,0
            79.94756,6.805,0
            79.94769,6.80509,0
            79.94781,6.80516,0
            79.94794,6.80522,0
            79.94802,6.80524,0
            79.94815,6.80528,0
            79.94873,6.80542,0
            79.94887,6.80548,0
            79.94888,6.80548,0
            79.94911,6.80555,0
            79.94935,6.80568,0
            79.94948,6.80578,0
            79.94957,6.80586,0
            79.94988,6.80618,0
            79.94991,6.80623,0
            79.95011,6.80645,0
            79.95018,6.80653,0
            79.9504,6.80677,0
            79.95046,6.80683,0
            79.95054,6.80693,0
            79.95063,6.80703,0
            79.95069,6.8071,0
            79.95093,6.80737,0
            79.951,6.80744,0
            79.95107,6.80752,0
            79.95123,6.80769,0
            79.95124,6.80769,0
            79.95136,6.80781,0
            79.95139,6.80785,0
            79.95146,6.80793,0
            79.9515,6.80799,0
            79.95152,6.80802,0
            79.95155,6.80805,0
            79.9516,6.80812,0
            79.95165,6.80822,0
            79.95172,6.80839,0
            79.95176,6.80849,0
            79.95179,6.80857,0
            79.95182,6.80863,0
            79.95184,6.80866,0
            79.95187,6.80869,0
            79.9519,6.80872,0
            79.95193,6.80876,0
            79.95197,6.80878,0
            79.952,6.8088,0
            79.95205,6.80883,0
            79.95212,6.80885,0
            79.95218,6.80887,0
            79.95225,6.80888,0
            79.9523,6.80889,0
            79.95241,6.8089,0
            79.95286,6.80894,0
            79.95294,6.80895,0
            79.95308,6.80897,0
            79.95317,6.80899,0
            79.95331,6.80904,0
            79.95336,6.80907,0
            79.95341,6.80909,0
            79.9535,6.80914,0
            79.95351,6.80916,0
            79.95358,6.80922,0
            79.95367,6.80931,0
            79.95384,6.80947,0
            79.95407,6.80973,0
            79.95423,6.80994,0
            79.95431,6.81005,0
            79.95444,6.81017,0
            79.95471,6.81039,0
            79.95474,6.81042,0
            79.95478,6.81044,0
            79.95497,6.81058,0
            79.95524,6.81078,0
            79.95536,6.81086,0
            79.95538,6.81088,0
            79.95551,6.81097,0
            79.95553,6.81098,0
            79.95561,6.81104,0
            79.95568,6.81109,0
            79.95592,6.81126,0
            79.95597,6.8113,0
            79.95598,6.81131,0
            79.95609,6.81139,0
            79.95616,6.81143,0
            79.95616,6.81144,0
            79.9563,6.81154,0
            79.95659,6.81178,0
            79.95664,6.81183,0
            79.95669,6.81189,0
            79.95674,6.81196,0
            79.9568,6.81206,0
            79.95686,6.81222,0
            79.95687,6.81224,0
            79.95688,6.81227,0
            79.95692,6.81239,0
            79.95693,6.81243,0
            79.95699,6.81267,0
            79.95701,6.81276,0
            79.95703,6.8128,0
            79.95713,6.8131,0
            79.95717,6.81328,0
            79.95719,6.81337,0
            79.9572,6.81338,0
            79.95725,6.8137,0
            79.95727,6.81384,0
            79.95727,6.8139,0
            79.9573,6.81402,0
            79.95735,6.81415,0
            79.95743,6.81429,0
            79.95752,6.81444,0
            79.95757,6.81453,0
            79.95759,6.81458,0
            79.9578,6.81499,0
            79.95783,6.81507,0
            79.95791,6.81528,0
            79.95794,6.81541,0
            79.958,6.81556,0
            79.95801,6.81561,0
            79.95806,6.81567,0
            79.95812,6.81572,0
            79.95821,6.81578,0
            79.95828,6.8158,0
            79.95833,6.81581,0
            79.95841,6.81583,0
            79.95856,6.81585,0
            79.95869,6.8159,0
            79.95881,6.81598,0
            79.95894,6.8161,0
            79.95915,6.81627,0
            79.95921,6.81632,0
            79.95935,6.81641,0
            79.95956,6.81657,0
            79.95968,6.81668,0
            79.95985,6.81678,0
            79.95994,6.81684,0
            79.96023,6.81714,0
            79.96027,6.81718,0
            79.96068,6.8176,0
            79.96078,6.81774,0
            79.96083,6.81784,0
            79.96086,6.8179,0
            79.96088,6.81801,0
            79.96086,6.81831,0
            79.96084,6.81854,0
            79.96079,6.81879,0
            79.96077,6.81894,0
            79.96073,6.81919,0
            79.9607,6.81932,0
            79.96066,6.81951,0
            79.96042,6.82013,0
            79.96039,6.82023,0
            79.96037,6.8203,0
            79.96034,6.8204,0
            79.96033,6.82045,0
            79.96032,6.82058,0
            79.96031,6.82067,0
            79.96031,6.82076,0
            79.96031,6.82084,0
            79.96033,6.821,0
            79.96035,6.82107,0
            79.96037,6.82116,0
            79.96053,6.8215,0
            79.96069,6.8219,0
            79.96071,6.82198,0
            79.96072,6.82207,0
            79.96073,6.82213,0
            79.96074,6.8222,0
            79.96075,6.82224,0
            79.96075,6.82231,0
            79.96076,6.8226,0
            79.96076,6.82271,0
            79.96076,6.82278,0
            79.96075,6.82287,0
            79.96068,6.82308,0
            79.96066,6.82326,0
            79.96067,6.82336,0
            79.96069,6.82366,0
            79.96068,6.82373,0
            79.96069,6.82394,0
            79.96069,6.82416,0
            79.96068,6.82456,0
            79.96067,6.82469,0
            79.96064,6.82493,0
            79.96061,6.82514,0
            79.96061,6.82516,0
            79.96059,6.82526,0
            79.96056,6.82546,0
            79.96055,6.82552,0
            79.96051,6.82569,0
            79.96048,6.82588,0
            79.96048,6.82592,0
            79.96045,6.82616,0
            79.96045,6.82642,0
            79.96045,6.82691,0
            79.96048,6.82699,0
            79.9605,6.82701,0
            79.96051,6.82704,0
            79.96053,6.82706,0
            79.96057,6.82712,0
            79.96067,6.82724,0
            79.96089,6.82749,0
            79.96091,6.82753,0
            79.96117,6.82797,0
            79.96132,6.82823,0
            79.96138,6.82837,0
            79.96138,6.82838,0
            79.96138,6.82839,0
            79.96139,6.82839,0
            79.96139,6.8284,0
            79.96139,6.82841,0
            79.9614,6.82842,0
            79.9615,6.8287,0
            79.96151,6.82875,0
            79.96152,6.82877,0
            79.96154,6.82884,0
            79.96155,6.82886,0
            79.96157,6.82893,0
            79.96173,6.8295,0
            79.96177,6.82959,0
            79.96181,6.82968,0
            79.96184,6.82976,0
            79.96189,6.82984,0
            79.96195,6.82995,0
            79.96198,6.83,0
            79.96201,6.83005,0
            79.96209,6.83017,0
            79.96212,6.83021,0
            79.96219,6.83029,0
            79.96229,6.8304,0
            79.96233,6.83046,0
            79.96242,6.83058,0
            79.96245,6.83066,0
            79.96255,6.83088,0
            79.96264,6.83106,0
            79.96272,6.83126,0
            79.96279,6.83142,0
            79.963,6.83165,0
            79.96328,6.83188,0
            79.96372,6.8322,0
            79.96374,6.83221,0
            79.96401,6.83242,0
            79.96428,6.83265,0
            79.96456,6.83288,0
            79.96459,6.8329,0
            79.96462,6.83291,0
            79.96464,6.83293,0
            79.96465,6.83293,0
            79.96475,6.83295,0
            79.96479,6.83316,0
            79.96488,6.8335,0
            79.96493,6.83368,0
            79.96495,6.83372,0
            79.96504,6.83407,0
            79.96509,6.83424,0
            79.96521,6.83465,0
            79.96523,6.83475,0
            79.96526,6.8349,0
            79.96527,6.83494,0
            79.96529,6.83514,0
            79.9653,6.83525,0
            79.96531,6.83535,0
            79.9653,6.83549,0
            79.96529,6.83561,0
            79.96527,6.83576,0
            79.96525,6.8359,0
            79.96521,6.83611,0
            79.96521,6.83615,0
            79.96519,6.83626,0
            79.96518,6.83634,0
            79.96514,6.83659,0
            79.96506,6.83707,0
            79.96505,6.83715,0
            79.96494,6.83784,0
            79.96489,6.83818,0
            79.96488,6.83825,0
            79.96486,6.83834,0
            79.9648,6.83867,0
            79.96479,6.83871,0
            79.96477,6.83883,0
            79.96477,6.83888,0
            79.96473,6.83911,0
            79.9647,6.83939,0
            79.96469,6.83951,0
            79.9647,6.83966,0
            79.96471,6.83976,0
            79.96482,6.84016,0
            79.96484,6.84022,0
            79.96497,6.84067,0
            79.96503,6.84086,0
            79.96503,6.841,0
            79.96502,6.84106,0
            79.96502,6.84107,0
            79.96502,6.84109,0
            79.96501,6.84112,0
            79.965,6.84115,0
            79.96499,6.84117,0
            79.96497,6.84119,0
            79.96482,6.84136,0
            79.96477,6.84138,0
          </coordinates>
        </LineString>
      </Placemark>
      <Placemark>
        <name>UoM</name>
        <styleUrl>#icon-1899-DB4436-nodesc</styleUrl>
        <Point>
          <coordinates>
            79.9004446,6.7965217,0
          </coordinates>
        </Point>
      </Placemark>
      <Placemark>
        <name>RXR7+GWW, Avissawella Rd, Pannipitiya 10230, Sri Lanka</name>
        <styleUrl>#icon-1899-DB4436-nodesc</styleUrl>
        <Point>
          <coordinates>
            79.9647659,6.8413757,0
          </coordinates>
        </Point>
      </Placemark>
    </Folder>
  </Document>
</kml>
